{"type":"FeatureCollection","features":[{"type":"Feature","geometry":{"type":"Polygon","coordinates":[[[-73.5069,41.6658],[-73.5181,41.6667],[-73.521,41.6198],[-73.5307,41.52],[-73.4504,41.5347],[-73.4978,41.6382],[-73.4941,41.6445],[-73.4847,41.6474],[-73.4903,41.6533],[-73.4936,41.6609],[-73.4983,41.6589],[-73.5063,41.6633],[-73.5069,41.6658]]]},"properties":{"name":"Sherman School District"}},{"type":"Feature","geometry":{"type":"Polygon","coordinates":[[[-73.3786,41.42],[-73.3801,41.4229],[-73.406,41.4282],[-73.406,41.4155],[-73.4009,41.4032],[-73.405,41.4026],[-73.4073,41.3958],[-73.4239,41.3824],[-73.4326,41.3785],[-73.435,41.3724],[-73.4243,41.3353],[-73.3471,41.3504],[-73.3786,41.42]]]},"properties":{"name":"Bethel School District"}},{"type":"Feature","geometry":{"type":"Polygon","coordinates":[[[-73.3317,41.4727],[-73.3367,41.4757],[-73.3477,41.4781],[-73.3753,41.4892],[-73.3768,41.499],[-73.379,41.5019],[-73.3886,41.5065],[-73.385,41.511],[-73.387,41.5148],[-73.4308,41.498],[-73.4415,41.4913],[-73.437,41.4836],[-73.4427,41.4854],[-73.443,41.4791],[-73.4444,41.4776],[-73.4433,41.4724],[-73.4374,41.4655],[-73.4348,41.4689],[-73.4383,41.4741],[-73.4332,41.472],[-73.4313,41.4688],[-73.4297,41.4697],[-73.4249,41.4596],[-73.4158,41.4303],[-73.3801,41.4229],[-73.3787,41.4199],[-73.3643,41.4379],[-73.3317,41.4727]]]},"properties":{"name":"Brookfield School District"}},{"type":"Feature","geometry":{"type":"Polygon","coordinates":[[[-73.406,41.4282],[-73.4158,41.4303],[-73.4269,41.4638],[-73.5363,41.4405],[-73.5415,41.4044],[-73.5436,41.3751],[-73.5064,41.3774],[-73.5016,41.362],[-73.4854,41.3566],[-73.4701,41.3264],[-73.4242,41.3349],[-73.435,41.3724],[-73.4326,41.3785],[-73.4239,41.3824],[-73.4073,41.3958],[-73.405,41.4026],[-73.4009,41.4032],[-73.406,41.4155],[-73.406,41.4282]]]},"properties":{"name":"Danbury School District"}},{"type":"Feature","geometry":{"type":"MultiPolygon","coordinates":[[[[-73.4566,41.0482],[-73.4575,41.0483],[-73.4577,41.0478],[-73.4566,41.0482]]],[[[-73.4608,41.0494],[-73.4612,41.0503],[-73.4617,41.0493],[-73.4608,41.0494]]],[[[-73.458,41.0505],[-73.4594,41.0503],[-73.4588,41.0493],[-73.458,41.0505]]],[[[-73.4623,41.0534],[-73.4622,41.054],[-73.4633,41.053],[-73.4623,41.0534]]],[[[-73.4586,41.0561],[-73.4586,41.0565],[-73.459,41.056],[-73.4586,41.0561]]],[[[-73.4643,41.0567],[-73.4648,41.0569],[-73.4648,41.0563],[-73.4643,41.0567]]],[[[-73.4674,41.0577],[-73.4679,41.0579],[-73.4677,41.0576],[-73.4674,41.0577]]],[[[-73.444,41.0684],[-73.4441,41.0684],[-73.4441,41.0683],[-73.444,41.0684]]],[[[-73.474,41.114],[-73.5008,41.1144],[-73.5065,41.1096],[-73.5101,41.1093],[-73.5116,41.106],[-73.5094,41.1038],[-73.5149,41.0944],[-73.5146,41.0877],[-73.5182,41.0803],[-73.5154,41.0744],[-73.5101,41.0708],[-73.5101,41.0672],[-73.5057,41.0586],[-73.5005,41.0561],[-73.4964,41.0563],[-73.495,41.054],[-73.4903,41.0538],[-73.4913,41.0531],[-73.4889,41.0516],[-73.4913,41.0493],[-73.4929,41.0518],[-73.4961,41.0488],[-73.4936,41.049],[-73.4905,41.0451],[-73.491,41.0423],[-73.489,41.0421],[-73.4895,41.0401],[-73.4863,41.042],[-73.4895,41.0436],[-73.4841,41.0465],[-73.484,41.0504],[-73.4832,41.0495],[-73.4822,41.0513],[-73.484,41.0511],[-73.485,41.0529],[-73.4806,41.0564],[-73.4788,41.0559],[-73.478,41.0589],[-73.4792,41.0617],[-73.477,41.0618],[-73.4738,41.066],[-73.4774,41.0607],[-73.4771,41.0577],[-73.4815,41.0533],[-73.4813,41.0499],[-73.4838,41.045],[-73.4783,41.0359],[-73.47,41.048],[-73.4723,41.0485],[-73.4753,41.0444],[-73.4769,41.0488],[-73.4738,41.0478],[-73.4744,41.051],[-73.4689,41.0502],[-73.4671,41.0516],[-73.4667,41.0546],[-73.4755,41.0539],[-73.4754,41.0562],[-73.4753,41.0542],[-73.4712,41.0549],[-73.4701,41.0567],[-73.4719,41.056],[-73.4712,41.0569],[-73.4685,41.0577],[-73.466,41.0615],[-73.4634,41.0592],[-73.465,41.0575],[-73.4629,41.0579],[-73.4621,41.061],[-73.4602,41.0584],[-73.4561,41.06],[-73.4526,41.0643],[-73.4525,41.0617],[-73.4573,41.0593],[-73.4582,41.0572],[-73.4559,41.0579],[-73.4613,41.0542],[-73.4616,41.0522],[-73.4534,41.0545],[-73.4535,41.0564],[-73.4469,41.0574],[-73.447,41.0607],[-73.4523,41.0588],[-73.4502,41.061],[-73.4494,41.0598],[-73.4477,41.0607],[-73.4447,41.0688],[-73.4478,41.0709],[-73.4459,41.0765],[-73.4475,41.085],[-73.4513,41.0886],[-73.4538,41.0875],[-73.4536,41.0919],[-73.474,41.114]]]]},"properties":{"name":"Darien School District"}},{"type":"Feature","geometry":{"type":"Polygon","coordinates":[[[-73.387,41.5148],[-73.3998,41.5201],[-73.4045,41.5312],[-73.4035,41.5406],[-73.3995,41.544],[-73.3921,41.5448],[-73.389,41.5469],[-73.391,41.5501],[-73.3912,41.556],[-73.372,41.5651],[-73.3431,41.5659],[-73.3591,41.6465],[-73.3704,41.6553],[-73.3779,41.659],[-73.3821,41.6833],[-73.5041,41.6691],[-73.5069,41.6658],[-73.5067,41.6638],[-73.4983,41.6589],[-73.494,41.6611],[-73.4903,41.6533],[-73.4847,41.6474],[-73.4941,41.6445],[-73.4978,41.6382],[-73.4459,41.5253],[-73.4428,41.5141],[-73.4453,41.5095],[-73.4415,41.4913],[-73.4308,41.498],[-73.387,41.5148]]]},"properties":{"name":"New Milford School District"}},{"type":"Feature","geometry":{"type":"Polygon","coordinates":[[[-73.3105,41.4688],[-73.3129,41.4674],[-73.3268,41.4695],[-73.3317,41.4727],[-73.3643,41.4379],[-73.3786,41.42],[-73.3333,41.3184],[-73.2291,41.3703],[-73.2281,41.3687],[-73.2294,41.3665],[-73.2281,41.3652],[-73.2212,41.364],[-73.2048,41.3705],[-73.2013,41.3739],[-73.2036,41.3792],[-73.1978,41.3828],[-73.1956,41.3879],[-73.1876,41.3889],[-73.1833,41.3917],[-73.1882,41.3982],[-73.1854,41.4022],[-73.1849,41.4063],[-73.1866,41.4086],[-73.1982,41.4119],[-73.2182,41.4291],[-73.2265,41.4303],[-73.2384,41.4263],[-73.2423,41.4298],[-73.2423,41.4361],[-73.2453,41.4399],[-73.2577,41.4336],[-73.2637,41.4345],[-73.2658,41.4368],[-73.2675,41.4436],[-73.2737,41.4517],[-73.2807,41.4523],[-73.2939,41.4474],[-73.2978,41.4483],[-73.3008,41.4559],[-73.2983,41.4648],[-73.2992,41.4695],[-73.3028,41.4714],[-73.3105,41.4688]]]},"properties":{"name":"Newtown School District"}},{"type":"Feature","geometry":{"type":"MultiPolygon","coordinates":[[[[-73.6225,40.9843],[-73.6285,40.9816],[-73.6292,40.9799],[-73.6242,40.9836],[-73.6242,40.9815],[-73.6217,40.9828],[-73.6225,40.9843]]],[[[-73.6095,40.9888],[-73.6101,40.9894],[-73.6109,40.9883],[-73.6095,40.9888]]],[[[-73.6579,40.9902],[-73.6578,40.9902],[-73.6579,40.9902],[-73.6579,40.9902]]],[[[-73.6076,40.9904],[-73.6082,40.9906],[-73.6079,40.9902],[-73.6076,40.9904]]],[[[-73.6375,40.9912],[-73.6375,40.993],[-73.6406,40.9937],[-73.6415,40.9907],[-73.6399,40.9884],[-73.6375,40.9912]]],[[[-73.6594,40.994],[-73.6596,40.9945],[-73.6593,40.9937],[-73.6594,40.994]]],[[[-73.6428,40.9954],[-73.6426,40.9969],[-73.6445,40.9952],[-73.6428,40.9954]]],[[[-73.6429,40.999],[-73.6438,40.9996],[-73.6444,40.9991],[-73.6429,40.999]]],[[[-73.5835,41.009],[-73.5838,41.0091],[-73.5836,41.0087],[-73.5835,41.009]]],[[[-73.6145,41.0085],[-73.6151,41.0094],[-73.6165,41.0088],[-73.6145,41.0085]]],[[[-73.5981,41.011],[-73.5987,41.011],[-73.5977,41.0107],[-73.5981,41.011]]],[[[-73.5765,41.0122],[-73.5764,41.0128],[-73.5771,41.0117],[-73.5765,41.0122]]],[[[-73.5989,41.0136],[-73.5989,41.0134],[-73.5986,41.0133],[-73.5989,41.0136]]],[[[-73.6031,41.0139],[-73.6033,41.015],[-73.6043,41.0143],[-73.6031,41.0139]]],[[[-73.5984,41.017],[-73.5992,41.0169],[-73.5983,41.0165],[-73.5984,41.017]]],[[[-73.5918,41.0218],[-73.5924,41.0203],[-73.5918,41.0203],[-73.5918,41.0218]]],[[[-73.599,41.0232],[-73.6,41.024],[-73.6004,41.0234],[-73.599,41.0232]]],[[[-73.5531,41.0235],[-73.5543,41.0242],[-73.5533,41.0233],[-73.5531,41.0235]]],[[[-73.5992,41.0267],[-73.6,41.0266],[-73.5993,41.0262],[-73.5992,41.0267]]],[[[-73.6133,41.117],[-73.6339,41.144],[-73.7278,41.1007],[-73.6553,41.0123],[-73.6591,41.0027],[-73.6579,41.0029],[-73.6545,41.0113],[-73.6591,40.9994],[-73.6561,40.9899],[-73.6583,40.9878],[-73.6577,40.9866],[-73.6457,41.0006],[-73.6431,41.0],[-73.6432,41.0013],[-73.6453,41.0014],[-73.6446,41.0037],[-73.6396,41.0109],[-73.6412,41.0068],[-73.6396,41.0063],[-73.6388,41.0025],[-73.6346,41.0006],[-73.6306,41.0034],[-73.6276,41.0002],[-73.6233,41.0067],[-73.6244,41.0084],[-73.6233,41.0103],[-73.629,41.0134],[-73.628,41.0138],[-73.6293,41.0147],[-73.6272,41.0158],[-73.6278,41.0138],[-73.624,41.0132],[-73.6239,41.0152],[-73.6274,41.0177],[-73.6246,41.0185],[-73.625,41.0173],[-73.6232,41.0172],[-73.6227,41.0186],[-73.621,41.011],[-73.6201,41.0183],[-73.618,41.0102],[-73.6167,41.0109],[-73.6151,41.0177],[-73.6123,41.0187],[-73.6156,41.0228],[-73.6118,41.0345],[-73.6141,41.0212],[-73.6113,41.0172],[-73.6082,41.02],[-73.6127,41.0154],[-73.6127,41.0119],[-73.6155,41.011],[-73.6131,41.0088],[-73.6068,41.0122],[-73.6058,41.0148],[-73.6025,41.0159],[-73.602,41.0148],[-73.6028,41.0181],[-73.5989,41.0181],[-73.6014,41.0207],[-73.6016,41.0278],[-73.6001,41.0286],[-73.5979,41.0271],[-73.5948,41.0303],[-73.5969,41.0336],[-73.5942,41.0332],[-73.5937,41.0364],[-73.5892,41.0418],[-73.589,41.0456],[-73.5861,41.0485],[-73.5861,41.0515],[-73.582,41.0569],[-73.5847,41.0524],[-73.5843,41.0489],[-73.589,41.0421],[-73.5887,41.0384],[-73.593,41.0309],[-73.5931,41.0216],[-73.5893,41.0226],[-73.5892,41.0212],[-73.5894,41.0176],[-73.5951,41.0172],[-73.5922,41.0145],[-73.5947,41.0146],[-73.5933,41.0144],[-73.594,41.012],[-73.5924,41.0122],[-73.5924,41.011],[-73.589,41.0128],[-73.5866,41.0109],[-73.5862,41.0134],[-73.5884,41.013],[-73.5863,41.0151],[-73.5852,41.0145],[-73.5859,41.0155],[-73.5835,41.0134],[-73.5792,41.0202],[-73.5792,41.0162],[-73.5779,41.019],[-73.5768,41.0187],[-73.5785,41.0207],[-73.5748,41.0207],[-73.5752,41.0271],[-73.5738,41.0264],[-73.5743,41.0247],[-73.5716,41.0256],[-73.5736,41.0225],[-73.5708,41.0214],[-73.5695,41.0229],[-73.5684,41.0207],[-73.5703,41.0192],[-73.5679,41.0174],[-73.5661,41.018],[-73.567,41.0165],[-73.5656,41.0164],[-73.5681,41.0149],[-73.5688,41.0164],[-73.569,41.0143],[-73.5712,41.0134],[-73.5683,41.0137],[-73.5686,41.0111],[-73.5751,41.0037],[-73.5818,41.0074],[-73.5844,41.005],[-73.584,41.0009],[-73.5701,41.0016],[-73.5677,41.0109],[-73.5644,41.0146],[-73.5633,41.0137],[-73.5639,41.0151],[-73.562,41.0168],[-73.56,41.0167],[-73.5601,41.0155],[-73.5595,41.0169],[-73.5573,41.0166],[-73.5544,41.0224],[-73.5559,41.0233],[-73.5556,41.0284],[-73.5632,41.0402],[-73.5683,41.0597],[-73.6133,41.117]]]]},"properties":{"name":"Greenwich School District"}},{"type":"Feature","geometry":{"type":"Polygon","coordinates":[[[-73.4489,41.1538],[-73.4498,41.1572],[-73.4525,41.1596],[-73.464,41.1613],[-73.4665,41.1646],[-73.4653,41.176],[-73.4735,41.1819],[-73.4701,41.1896],[-73.4729,41.1914],[-73.472,41.1944],[-73.4789,41.2064],[-73.4803,41.2079],[-73.4837,41.208],[-73.4849,41.2118],[-73.5548,41.1799],[-73.5523,41.1761],[-73.5531,41.1742],[-73.5437,41.1637],[-73.5323,41.1546],[-73.5341,41.1498],[-73.5225,41.1189],[-73.5223,41.1146],[-73.4746,41.1147],[-73.4578,41.1364],[-73.4495,41.1501],[-73.4489,41.1538]]]},"properties":{"name":"New Canaan School District"}},{"type":"Feature","geometry":{"type":"Polygon","coordinates":[[[-73.4415,41.4913],[-73.4453,41.5095],[-73.4428,41.5141],[-73.4504,41.5347],[-73.5307,41.52],[-73.5371,41.4397],[-73.4269,41.4638],[-73.4297,41.4697],[-73.4313,41.4688],[-73.4332,41.472],[-73.4383,41.4741],[-73.4348,41.4689],[-73.4371,41.4654],[-73.4433,41.4724],[-73.4444,41.4776],[-73.443,41.4791],[-73.4429,41.4852],[-73.437,41.4836],[-73.4415,41.4913]]]},"properties":{"name":"New Fairfield School District"}},{"type":"Feature","geometry":{"type":"MultiPolygon","coordinates":[[[[-73.4052,41.055],[-73.406,41.0552],[-73.4055,41.0547],[-73.4052,41.055]]],[[[-73.4085,41.0552],[-73.4094,41.0553],[-73.4099,41.0549],[-73.4085,41.0552]]],[[[-73.4055,41.0572],[-73.4066,41.0566],[-73.406,41.0562],[-73.4055,41.0572]]],[[[-73.4102,41.0586],[-73.4106,41.0585],[-73.4106,41.0583],[-73.4102,41.0586]]],[[[-73.4051,41.0587],[-73.4059,41.0589],[-73.4058,41.0585],[-73.4051,41.0587]]],[[[-73.3904,41.0605],[-73.392,41.0613],[-73.3867,41.0587],[-73.3868,41.0599],[-73.3904,41.0605]]],[[[-73.4226,41.06],[-73.4218,41.0615],[-73.4235,41.0602],[-73.4226,41.06]]],[[[-73.4004,41.0624],[-73.4057,41.0619],[-73.4078,41.0589],[-73.4069,41.0582],[-73.4058,41.0604],[-73.4023,41.0585],[-73.4033,41.0539],[-73.4136,41.0529],[-73.4147,41.0536],[-73.4135,41.0547],[-73.4178,41.0542],[-73.4212,41.0483],[-73.4237,41.0472],[-73.4133,41.0527],[-73.4034,41.0533],[-73.4004,41.0624]]],[[[-73.4203,41.0633],[-73.4203,41.0634],[-73.4208,41.0631],[-73.4203,41.0633]]],[[[-73.3919,41.0638],[-73.3873,41.0663],[-73.3873,41.068],[-73.3906,41.0688],[-73.3946,41.0672],[-73.3949,41.0644],[-73.3919,41.0638]]],[[[-73.4187,41.07],[-73.4191,41.0695],[-73.4185,41.0695],[-73.4187,41.07]]],[[[-73.418,41.0704],[-73.418,41.0702],[-73.4176,41.0701],[-73.418,41.0704]]],[[[-73.3843,41.0697],[-73.3837,41.0716],[-73.3861,41.07],[-73.3843,41.0697]]],[[[-73.3889,41.0722],[-73.3872,41.0724],[-73.3886,41.073],[-73.3926,41.0706],[-73.3889,41.0722]]],[[[-73.4037,41.0733],[-73.4045,41.0729],[-73.4038,41.0729],[-73.4037,41.0733]]],[[[-73.4149,41.0742],[-73.4155,41.0748],[-73.4152,41.0739],[-73.4149,41.0742]]],[[[-73.4196,41.0742],[-73.4197,41.0754],[-73.4203,41.073],[-73.4196,41.0742]]],[[[-73.384,41.0826],[-73.3851,41.0827],[-73.3845,41.0821],[-73.384,41.0826]]],[[[-73.4056,41.0836],[-73.4065,41.0825],[-73.4058,41.0825],[-73.4056,41.0836]]],[[[-73.3848,41.0939],[-73.3833,41.0952],[-73.3833,41.0988],[-73.3849,41.0927],[-73.3848,41.0939]]],[[[-73.3813,41.1185],[-73.3801,41.1219],[-73.3827,41.1423],[-73.3888,41.149],[-73.3868,41.1698],[-73.3948,41.1718],[-73.4186,41.1609],[-73.4489,41.1538],[-73.4495,41.1501],[-73.4578,41.1364],[-73.4746,41.1147],[-73.4536,41.0919],[-73.4538,41.0875],[-73.4513,41.0886],[-73.4475,41.085],[-73.4459,41.0765],[-73.4475,41.0726],[-73.4437,41.071],[-73.4456,41.0583],[-73.4392,41.0555],[-73.4378,41.0569],[-73.4337,41.056],[-73.4342,41.0587],[-73.4329,41.0601],[-73.4368,41.0602],[-73.4358,41.0575],[-73.4381,41.0609],[-73.4412,41.0602],[-73.4409,41.0646],[-73.4401,41.0608],[-73.4358,41.0617],[-73.4342,41.0627],[-73.4321,41.0695],[-73.4301,41.0704],[-73.4297,41.0635],[-73.4247,41.0663],[-73.4246,41.072],[-73.421,41.0764],[-73.4235,41.0777],[-73.4221,41.078],[-73.4219,41.0814],[-73.4211,41.0778],[-73.4188,41.0761],[-73.4178,41.0784],[-73.416,41.0786],[-73.4172,41.0753],[-73.4147,41.0763],[-73.4134,41.0753],[-73.4124,41.0712],[-73.4086,41.0719],[-73.4083,41.0743],[-73.4075,41.0721],[-73.4084,41.0845],[-73.4115,41.0833],[-73.4114,41.0809],[-73.4159,41.0811],[-73.4107,41.0857],[-73.4122,41.0877],[-73.4103,41.0915],[-73.4127,41.0931],[-73.4167,41.1039],[-73.411,41.1074],[-73.4131,41.1093],[-73.4101,41.1148],[-73.4123,41.1184],[-73.4088,41.1132],[-73.4109,41.11],[-73.4095,41.1068],[-73.4145,41.1032],[-73.4147,41.1006],[-73.4103,41.096],[-73.4076,41.0965],[-73.4066,41.099],[-73.4038,41.0962],[-73.4043,41.0929],[-73.4021,41.0924],[-73.4004,41.094],[-73.4024,41.0868],[-73.3991,41.0868],[-73.397,41.093],[-73.3977,41.0885],[-73.3963,41.0869],[-73.3995,41.085],[-73.3987,41.083],[-73.396,41.0823],[-73.3933,41.0836],[-73.3922,41.0877],[-73.3869,41.0925],[-73.3868,41.0935],[-73.389,41.092],[-73.3873,41.0934],[-73.3896,41.0936],[-73.3915,41.0925],[-73.3899,41.098],[-73.3878,41.0986],[-73.3885,41.0954],[-73.3898,41.0957],[-73.3875,41.0946],[-73.3852,41.0982],[-73.3861,41.1004],[-73.3852,41.0993],[-73.3836,41.1004],[-73.3843,41.1073],[-73.3813,41.1185]]]]},"properties":{"name":"Norwalk School District"}},{"type":"Feature","geometry":{"type":"Polygon","coordinates":[[[-73.4701,41.3264],[-73.4854,41.3566],[-73.5016,41.362],[-73.5064,41.3774],[-73.5436,41.3751],[-73.551,41.2954],[-73.5025,41.2372],[-73.4692,41.252],[-73.4639,41.2528],[-73.461,41.2556],[-73.4382,41.2652],[-73.4471,41.2785],[-73.4512,41.306],[-73.4661,41.3122],[-73.4701,41.3264]]]},"properties":{"name":"Ridgefield School District"}},{"type":"Feature","geometry":{"type":"MultiPolygon","coordinates":[[[[-73.5394,41.0254],[-73.5393,41.0274],[-73.5406,41.0261],[-73.5394,41.0254]]],[[[-73.5354,41.0301],[-73.5359,41.0305],[-73.5361,41.0301],[-73.5354,41.0301]]],[[[-73.5047,41.0338],[-73.5052,41.0342],[-73.5053,41.0337],[-73.5047,41.0338]]],[[[-73.5089,41.0349],[-73.5104,41.0352],[-73.5095,41.0343],[-73.5089,41.0349]]],[[[-73.5055,41.0364],[-73.5072,41.0369],[-73.5045,41.0354],[-73.5055,41.0364]]],[[[-73.4959,41.0486],[-73.4961,41.0488],[-73.4964,41.0485],[-73.4959,41.0486]]],[[[-73.5447,41.1652],[-73.5531,41.1742],[-73.5523,41.1761],[-73.5548,41.1799],[-73.6339,41.144],[-73.5683,41.0597],[-73.5632,41.0402],[-73.5543,41.0242],[-73.5531,41.0235],[-73.5507,41.0255],[-73.5495,41.0309],[-73.5477,41.0279],[-73.5501,41.0268],[-73.549,41.0254],[-73.5501,41.025],[-73.5471,41.0224],[-73.5474,41.0262],[-73.5448,41.0252],[-73.5425,41.0292],[-73.5462,41.042],[-73.5446,41.0422],[-73.5433,41.0398],[-73.541,41.0323],[-73.5399,41.0358],[-73.5375,41.0314],[-73.5369,41.0356],[-73.5307,41.0402],[-73.5315,41.0454],[-73.5337,41.0479],[-73.5299,41.0456],[-73.5285,41.0391],[-73.5306,41.0392],[-73.5315,41.038],[-73.5299,41.0362],[-73.5319,41.0377],[-73.5335,41.0333],[-73.5342,41.035],[-73.5357,41.0328],[-73.5324,41.0327],[-73.5315,41.034],[-73.5326,41.0316],[-73.5302,41.0288],[-73.5312,41.0219],[-73.5289,41.0164],[-73.5273,41.0186],[-73.5227,41.0193],[-73.5168,41.0295],[-73.5221,41.0325],[-73.5222,41.0421],[-73.5187,41.0398],[-73.5207,41.0401],[-73.5204,41.0378],[-73.5108,41.0383],[-73.51,41.0395],[-73.5077,41.0374],[-73.5035,41.0429],[-73.503,41.0468],[-73.5017,41.0411],[-73.502,41.0429],[-73.4998,41.0428],[-73.4998,41.0457],[-73.496,41.0475],[-73.5026,41.0501],[-73.5022,41.0535],[-73.5081,41.0621],[-73.5101,41.0708],[-73.5154,41.0744],[-73.5182,41.0803],[-73.5146,41.0877],[-73.5149,41.0944],[-73.5094,41.1038],[-73.5114,41.1076],[-73.5093,41.1097],[-73.5065,41.1096],[-73.5008,41.1144],[-73.5223,41.1146],[-73.5225,41.1189],[-73.5341,41.1498],[-73.5323,41.1546],[-73.5447,41.1652]]]]},"properties":{"name":"Stamford School District"}},{"type":"Feature","geometry":{"type":"Polygon","coordinates":[[[-73.329,41.2134],[-73.3257,41.2162],[-73.3255,41.2201],[-73.3236,41.2219],[-73.3267,41.2259],[-73.3259,41.2275],[-73.3688,41.275],[-73.4301,41.2543],[-73.3716,41.1747],[-73.3336,41.1987],[-73.3325,41.205],[-73.3289,41.21],[-73.3304,41.211],[-73.329,41.2134]]]},"properties":{"name":"Weston School District"}},{"type":"Feature","geometry":{"type":"MultiPolygon","coordinates":[[[[-73.3836,41.0703],[-73.3821,41.071],[-73.3829,41.0722],[-73.3836,41.0703]]],[[[-73.372,41.0719],[-73.3728,41.0724],[-73.3731,41.0709],[-73.372,41.0719]]],[[[-73.3551,41.0874],[-73.3597,41.0857],[-73.3553,41.0872],[-73.3582,41.0854],[-73.3562,41.0845],[-73.357,41.0834],[-73.3624,41.083],[-73.3585,41.0821],[-73.3557,41.0836],[-73.3551,41.0874]]],[[[-73.381,41.0893],[-73.3801,41.0904],[-73.3829,41.0897],[-73.381,41.0893]]],[[[-73.3819,41.0972],[-73.3832,41.0987],[-73.3833,41.0952],[-73.3795,41.0952],[-73.3823,41.096],[-73.3805,41.0966],[-73.3819,41.0972]]],[[[-73.3681,41.107],[-73.3687,41.1072],[-73.3686,41.1066],[-73.3681,41.107]]],[[[-73.3608,41.1086],[-73.3605,41.1091],[-73.3612,41.1084],[-73.3608,41.1086]]],[[[-73.3597,41.1093],[-73.3601,41.1094],[-73.36,41.1091],[-73.3597,41.1093]]],[[[-73.3445,41.1142],[-73.3446,41.1137],[-73.3438,41.1142],[-73.3445,41.1142]]],[[[-73.3731,41.1154],[-73.3732,41.1147],[-73.3728,41.1147],[-73.3731,41.1154]]],[[[-73.3429,41.1153],[-73.3442,41.1155],[-73.3451,41.1151],[-73.3429,41.1153]]],[[[-73.3409,41.1172],[-73.3413,41.1177],[-73.3415,41.1168],[-73.3409,41.1172]]],[[[-73.3627,41.1438],[-73.3637,41.1455],[-73.3638,41.143],[-73.3627,41.1438]]],[[[-73.3634,41.1463],[-73.3637,41.1458],[-73.3633,41.1457],[-73.3634,41.1463]]],[[[-73.3635,41.1466],[-73.3639,41.1468],[-73.3638,41.1465],[-73.3635,41.1466]]],[[[-73.3445,41.1142],[-73.346,41.1145],[-73.3461,41.1169],[-73.3431,41.1166],[-73.3422,41.1205],[-73.34,41.1208],[-73.3405,41.1224],[-73.339,41.1223],[-73.3391,41.1195],[-73.3348,41.1214],[-73.3332,41.1201],[-73.3374,41.1183],[-73.3373,41.113],[-73.3392,41.1169],[-73.3401,41.1127],[-73.3402,41.1159],[-73.3413,41.1152],[-73.3417,41.1165],[-73.3444,41.1135],[-73.3392,41.1117],[-73.3307,41.11],[-73.32,41.1154],[-73.3119,41.1163],[-73.3095,41.1146],[-73.2991,41.1199],[-73.299,41.1252],[-73.2971,41.1264],[-73.2961,41.1337],[-73.299,41.1407],[-73.2988,41.1448],[-73.3034,41.1459],[-73.3043,41.149],[-73.306,41.1495],[-73.3048,41.1524],[-73.3074,41.1523],[-73.3385,41.1945],[-73.3716,41.1747],[-73.3796,41.1858],[-73.3871,41.1705],[-73.3884,41.158],[-73.3888,41.149],[-73.3827,41.1423],[-73.3801,41.1219],[-73.3844,41.1029],[-73.3836,41.1004],[-73.3813,41.1024],[-73.3773,41.099],[-73.3829,41.0992],[-73.3814,41.0974],[-73.3716,41.0953],[-73.368,41.0955],[-73.3661,41.0977],[-73.3686,41.1006],[-73.3677,41.0986],[-73.369,41.0983],[-73.3788,41.1044],[-73.3826,41.1039],[-73.3832,41.1059],[-73.3817,41.1043],[-73.3781,41.1054],[-73.3798,41.1063],[-73.3738,41.1152],[-73.3747,41.1166],[-73.3738,41.1177],[-73.3722,41.1131],[-73.3691,41.1187],[-73.3711,41.1239],[-73.3633,41.138],[-73.3654,41.1454],[-73.3644,41.1455],[-73.3666,41.1493],[-73.3633,41.1467],[-73.362,41.1379],[-73.3609,41.1391],[-73.3599,41.1374],[-73.3618,41.1368],[-73.3612,41.1337],[-73.3642,41.1317],[-73.3663,41.1324],[-73.3678,41.1303],[-73.3691,41.1239],[-73.3663,41.1222],[-73.3712,41.1083],[-73.3674,41.1078],[-73.3662,41.109],[-73.3654,41.1073],[-73.3636,41.1074],[-73.3606,41.1105],[-73.3576,41.1098],[-73.3576,41.1112],[-73.3567,41.11],[-73.3566,41.1118],[-73.3573,41.1074],[-73.359,41.1077],[-73.357,41.1086],[-73.3582,41.1094],[-73.3601,41.1084],[-73.3596,41.1073],[-73.3621,41.108],[-73.3646,41.1062],[-73.3545,41.1063],[-73.3576,41.1048],[-73.353,41.1014],[-73.352,41.1053],[-73.3457,41.1091],[-73.3464,41.1128],[-73.3445,41.1142]]]]},"properties":{"name":"Westport School District"}},{"type":"Feature","geometry":{"type":"Polygon","coordinates":[[[-73.4301,41.2543],[-73.4382,41.2652],[-73.461,41.2556],[-73.4639,41.2528],[-73.4692,41.252],[-73.5025,41.2372],[-73.4827,41.2128],[-73.4849,41.2118],[-73.4844,41.209],[-73.4789,41.2064],[-73.472,41.1944],[-73.4729,41.1914],[-73.4701,41.1896],[-73.4735,41.1819],[-73.4653,41.176],[-73.4665,41.1646],[-73.464,41.1613],[-73.4525,41.1596],[-73.4498,41.1572],[-73.4489,41.1538],[-73.4186,41.1609],[-73.3948,41.1718],[-73.3871,41.1705],[-73.3796,41.1858],[-73.4301,41.2543]]]},"properties":{"name":"Wilton School District"}},{"type":"Feature","geometry":{"type":"Polygon","coordinates":[[[-73.334,41.3199],[-73.3471,41.3504],[-73.3602,41.3468],[-73.4701,41.3264],[-73.4661,41.3122],[-73.4512,41.306],[-73.4471,41.2785],[-73.4301,41.2543],[-73.3688,41.275],[-73.3259,41.2275],[-73.3267,41.2259],[-73.3236,41.2219],[-73.3255,41.2201],[-73.3257,41.2162],[-73.329,41.2134],[-73.3019,41.2127],[-73.2908,41.2201],[-73.2883,41.2239],[-73.2843,41.2253],[-73.2795,41.2316],[-73.2633,41.2125],[-73.2621,41.2129],[-73.2566,41.2193],[-73.2514,41.2305],[-73.2361,41.2384],[-73.2745,41.2839],[-73.2743,41.2937],[-73.2782,41.2984],[-73.2761,41.3017],[-73.272,41.3039],[-73.2706,41.3072],[-73.2726,41.3182],[-73.306,41.3324],[-73.3333,41.3184],[-73.334,41.3199]]]},"properties":{"name":"Regional School District 09"}},{"type":"Feature","geometry":{"type":"Polygon","coordinates":[[[-73.2744,41.2938],[-73.2782,41.2984],[-73.2761,41.3017],[-73.272,41.3039],[-73.2706,41.3072],[-73.2727,41.3183],[-73.306,41.3324],[-73.3253,41.3225],[-73.316,41.3109],[-73.3157,41.3086],[-73.3048,41.2978],[-73.3688,41.275],[-73.3259,41.2275],[-73.3267,41.2259],[-73.3236,41.2219],[-73.3255,41.2201],[-73.3257,41.2162],[-73.329,41.2134],[-73.3019,41.2127],[-73.2908,41.2201],[-73.2883,41.2239],[-73.2843,41.2253],[-73.2795,41.2316],[-73.2633,41.2125],[-73.2566,41.2193],[-73.2514,41.2305],[-73.2361,41.2384],[-73.2745,41.2839],[-73.2744,41.2938]]]},"properties":{"name":"Easton School District"}},{"type":"Feature","geometry":{"type":"Polygon","coordinates":[[[-73.3253,41.3225],[-73.3333,41.3184],[-73.3471,41.3504],[-73.3602,41.3468],[-73.4701,41.3264],[-73.4661,41.3122],[-73.4512,41.306],[-73.4471,41.2785],[-73.4301,41.2543],[-73.3048,41.2978],[-73.3157,41.3086],[-73.316,41.3109],[-73.3253,41.3225]]]},"properties":{"name":"Redding School District"}},{"type":"Feature","geometry":{"type":"MultiPolygon","coordinates":[[[[-73.1627,41.1628],[-73.1623,41.1643],[-73.1641,41.1633],[-73.1627,41.1628]]],[[[-73.1644,41.1581],[-73.1634,41.1609],[-73.1672,41.1645],[-73.1717,41.1593],[-73.1644,41.1581]]],[[[-73.1966,41.2278],[-73.2011,41.2283],[-73.2015,41.2296],[-73.2073,41.2278],[-73.2442,41.2266],[-73.2191,41.1978],[-73.2204,41.188],[-73.2178,41.1828],[-73.2196,41.1816],[-73.2193,41.179],[-73.2257,41.1737],[-73.2277,41.1702],[-73.2277,41.169],[-73.225,41.1708],[-73.2246,41.1696],[-73.2236,41.1711],[-73.2223,41.1689],[-73.2236,41.1669],[-73.2372,41.1551],[-73.2361,41.1524],[-73.2337,41.1521],[-73.2331,41.1495],[-73.2348,41.1439],[-73.2277,41.1425],[-73.2227,41.1481],[-73.2238,41.1505],[-73.218,41.1535],[-73.217,41.1557],[-73.22,41.1555],[-73.2176,41.1584],[-73.2119,41.1587],[-73.2095,41.1603],[-73.2101,41.1622],[-73.2078,41.162],[-73.2049,41.166],[-73.2012,41.1663],[-73.2048,41.1643],[-73.208,41.1592],[-73.2168,41.1533],[-73.2159,41.1446],[-73.2179,41.1421],[-73.2169,41.1413],[-73.2155,41.1425],[-73.216,41.1483],[-73.2111,41.1534],[-73.1973,41.1598],[-73.19,41.1604],[-73.1893,41.1593],[-73.1853,41.1607],[-73.1845,41.1652],[-73.1794,41.1669],[-73.1851,41.1727],[-73.1865,41.1827],[-73.1894,41.1843],[-73.189,41.186],[-73.1855,41.1829],[-73.1845,41.1757],[-73.1812,41.1741],[-73.1782,41.1759],[-73.1715,41.1852],[-73.1784,41.1724],[-73.1729,41.1685],[-73.1651,41.1661],[-73.1651,41.1727],[-73.1645,41.1706],[-73.1614,41.1739],[-73.1595,41.1736],[-73.1638,41.1686],[-73.1622,41.166],[-73.1593,41.1738],[-73.1554,41.178],[-73.1542,41.1831],[-73.1552,41.1903],[-73.1538,41.1927],[-73.1628,41.2202],[-73.1576,41.2284],[-73.1695,41.2228],[-73.1863,41.2205],[-73.1907,41.2242],[-73.1832,41.2237],[-73.1845,41.2259],[-73.1814,41.2271],[-73.1883,41.2275],[-73.1909,41.225],[-73.1966,41.2278]]]]},"properties":{"name":"Bridgeport School District"}},{"type":"Feature","geometry":{"type":"Polygon","coordinates":[[[-73.2486,41.232],[-73.2514,41.2305],[-73.2566,41.2193],[-73.2621,41.2129],[-73.2633,41.2125],[-73.2796,41.2316],[-73.2843,41.2253],[-73.2883,41.2239],[-73.2908,41.2201],[-73.3019,41.2127],[-73.329,41.2134],[-73.3304,41.211],[-73.3289,41.21],[-73.3325,41.205],[-73.3335,41.1988],[-73.3377,41.1968],[-73.3385,41.1945],[-73.309,41.1545],[-73.3074,41.1523],[-73.3048,41.1524],[-73.306,41.1495],[-73.3043,41.149],[-73.3035,41.146],[-73.2981,41.1437],[-73.299,41.1407],[-73.2961,41.1337],[-73.2971,41.1264],[-73.2986,41.1247],[-73.2868,41.1279],[-73.2846,41.1318],[-73.2773,41.1357],[-73.2744,41.1396],[-73.2771,41.1333],[-73.2829,41.1316],[-73.2861,41.1274],[-73.2785,41.1252],[-73.2767,41.1216],[-73.2738,41.12],[-73.2624,41.1175],[-73.2525,41.1249],[-73.2424,41.1278],[-73.2406,41.135],[-73.2329,41.1476],[-73.2337,41.1521],[-73.2361,41.1524],[-73.2372,41.1551],[-73.2289,41.1615],[-73.2223,41.1689],[-73.2238,41.1712],[-73.2246,41.1696],[-73.225,41.1708],[-73.2278,41.1692],[-73.2257,41.1737],[-73.2193,41.179],[-73.2196,41.1816],[-73.2178,41.1828],[-73.2204,41.188],[-73.2191,41.1978],[-73.2486,41.232]]]},"properties":{"name":"Fairfield School District"}},{"type":"Feature","geometry":{"type":"MultiPolygon","coordinates":[[[[-73.1676,41.3835],[-73.1682,41.3836],[-73.1678,41.3835],[-73.1676,41.3835]]],[[[-73.1605,41.3837],[-73.1613,41.3839],[-73.1619,41.3838],[-73.1605,41.3837]]],[[[-73.1812,41.3896],[-73.1833,41.3917],[-73.1892,41.3884],[-73.1949,41.3885],[-73.1978,41.3828],[-73.2036,41.3792],[-73.2013,41.374],[-73.2022,41.3722],[-73.2103,41.3679],[-73.2224,41.364],[-73.2281,41.3652],[-73.2294,41.3665],[-73.2281,41.3687],[-73.2291,41.3703],[-73.306,41.3324],[-73.2727,41.3183],[-73.2706,41.3072],[-73.272,41.3039],[-73.2761,41.3017],[-73.2782,41.2984],[-73.2744,41.2938],[-73.2048,41.2994],[-73.1768,41.3376],[-73.1707,41.3579],[-73.1575,41.3765],[-73.1594,41.3786],[-73.1586,41.3827],[-73.1734,41.3836],[-73.1812,41.3896]]]]},"properties":{"name":"Monroe School District"}},{"type":"Feature","geometry":{"type":"MultiPolygon","coordinates":[[[[-73.1434,41.1531],[-73.1454,41.1535],[-73.1429,41.1524],[-73.1434,41.1531]]],[[[-73.116,41.195],[-73.1175,41.1938],[-73.117,41.1935],[-73.116,41.195]]],[[[-73.1093,41.2172],[-73.1114,41.2227],[-73.1104,41.2161],[-73.1093,41.2172]]],[[[-73.1066,41.2638],[-73.1059,41.2668],[-73.1083,41.2686],[-73.1469,41.2554],[-73.1454,41.2541],[-73.1432,41.2412],[-73.1407,41.238],[-73.1467,41.2368],[-73.1506,41.2323],[-73.1575,41.2286],[-73.1628,41.2202],[-73.1538,41.1927],[-73.1552,41.1903],[-73.1542,41.1831],[-73.1554,41.178],[-73.1593,41.1738],[-73.1614,41.1666],[-73.1599,41.1661],[-73.1628,41.1627],[-73.1584,41.162],[-73.1588,41.1607],[-73.1541,41.1567],[-73.1494,41.1559],[-73.148,41.1594],[-73.1469,41.1584],[-73.1487,41.1558],[-73.1476,41.1554],[-73.1439,41.1578],[-73.1437,41.1608],[-73.1426,41.1587],[-73.1401,41.1602],[-73.1401,41.1574],[-73.1427,41.1557],[-73.1346,41.1559],[-73.1369,41.1544],[-73.136,41.1528],[-73.1373,41.1537],[-73.1411,41.1522],[-73.1399,41.1501],[-73.1477,41.1545],[-73.1487,41.1536],[-73.1586,41.157],[-73.1634,41.1609],[-73.1644,41.158],[-73.1449,41.1518],[-73.1401,41.1489],[-73.1303,41.1468],[-73.1179,41.1512],[-73.103,41.1514],[-73.1013,41.1538],[-73.11,41.157],[-73.1087,41.164],[-73.1104,41.1662],[-73.109,41.1669],[-73.1146,41.1714],[-73.1208,41.1717],[-73.1194,41.1736],[-73.1222,41.172],[-73.1263,41.1732],[-73.1242,41.1769],[-73.121,41.1754],[-73.1248,41.1777],[-73.1244,41.181],[-73.1255,41.1813],[-73.1242,41.1815],[-73.1229,41.1877],[-73.1115,41.2005],[-73.111,41.205],[-73.1127,41.208],[-73.1115,41.2129],[-73.1139,41.2213],[-73.1143,41.2159],[-73.1157,41.2178],[-73.1139,41.2253],[-73.1053,41.2393],[-73.0925,41.2464],[-73.0887,41.2526],[-73.0915,41.2568],[-73.0947,41.2562],[-73.0972,41.2589],[-73.103,41.2595],[-73.1041,41.2632],[-73.1066,41.2638]]]]},"properties":{"name":"Stratford School District"}},{"type":"Feature","geometry":{"type":"Polygon","coordinates":[[[-73.1469,41.2554],[-73.1553,41.2691],[-73.1739,41.2686],[-73.2048,41.2994],[-73.2724,41.2941],[-73.2744,41.2938],[-73.2752,41.2918],[-73.2745,41.2839],[-73.2712,41.2793],[-73.2361,41.2384],[-73.2486,41.232],[-73.2442,41.2266],[-73.2073,41.2278],[-73.2015,41.2296],[-73.2011,41.2283],[-73.1909,41.225],[-73.1883,41.2275],[-73.1814,41.2271],[-73.1845,41.2259],[-73.1832,41.2237],[-73.1907,41.2242],[-73.1873,41.2205],[-73.1695,41.2228],[-73.1539,41.23],[-73.1467,41.2368],[-73.1407,41.238],[-73.1432,41.2412],[-73.1454,41.2541],[-73.1469,41.2554]]]},"properties":{"name":"Trumbull School District"}}]}
