{"type":"FeatureCollection","features":[{"type":"Feature","geometry":{"type":"Polygon","coordinates":[[[-73.521,41.6198],[-73.5989,41.6116],[-73.6003,41.6265],[-73.5979,41.627],[-73.6001,41.6314],[-73.6049,41.6333],[-73.6117,41.6329],[-73.6213,41.635],[-73.625,41.6363],[-73.6253,41.6403],[-73.6301,41.6398],[-73.6282,41.6083],[-73.6378,41.6024],[-73.6379,41.6],[-73.6417,41.5994],[-73.6401,41.5922],[-73.6437,41.5916],[-73.6431,41.5881],[-73.646,41.5876],[-73.6476,41.5844],[-73.6505,41.584],[-73.6534,41.5859],[-73.6576,41.5849],[-73.6561,41.583],[-73.665,41.582],[-73.6673,41.5751],[-73.6752,41.5757],[-73.6759,41.5738],[-73.6806,41.5733],[-73.6808,41.5745],[-73.6962,41.5647],[-73.7015,41.564],[-73.7012,41.5605],[-73.7074,41.5599],[-73.7063,41.5577],[-73.7096,41.5576],[-73.6964,41.5419],[-73.6973,41.5402],[-73.6958,41.5411],[-73.68,41.5226],[-73.6808,41.5191],[-73.6794,41.5186],[-73.6801,41.517],[-73.6786,41.5151],[-73.682,41.515],[-73.6815,41.5136],[-73.6457,41.5186],[-73.6454,41.5166],[-73.6391,41.5159],[-73.6345,41.5198],[-73.6384,41.5196],[-73.5798,41.5265],[-73.5608,41.5266],[-73.5632,41.5119],[-73.5478,41.5129],[-73.548,41.517],[-73.531,41.5172],[-73.521,41.6198]]]},"properties":{"name":"Pawling Central School District"}},{"type":"Feature","geometry":{"type":"Polygon","coordinates":[[[-73.5116,41.7479],[-73.5224,41.7486],[-73.522,41.7516],[-73.5289,41.7562],[-73.5282,41.7605],[-73.5356,41.7611],[-73.5384,41.7594],[-73.5388,41.7571],[-73.5453,41.7599],[-73.545,41.7621],[-73.5486,41.7636],[-73.5527,41.7621],[-73.5528,41.7641],[-73.5576,41.7643],[-73.5549,41.7687],[-73.5564,41.7711],[-73.5507,41.7727],[-73.5467,41.7773],[-73.5475,41.7778],[-73.5467,41.776],[-73.5459,41.7777],[-73.5477,41.7797],[-73.5446,41.7784],[-73.5426,41.7874],[-73.5486,41.7876],[-73.5499,41.7859],[-73.5582,41.7875],[-73.5558,41.7907],[-73.5599,41.7905],[-73.5602,41.795],[-73.5753,41.793],[-73.5748,41.7893],[-73.5775,41.7888],[-73.5767,41.7849],[-73.5815,41.7841],[-73.5803,41.7796],[-73.5895,41.7784],[-73.5909,41.7879],[-73.6023,41.7869],[-73.6035,41.7909],[-73.6136,41.7905],[-73.62,41.788],[-73.6191,41.783],[-73.6166,41.7831],[-73.6124,41.7714],[-73.6207,41.7706],[-73.6217,41.7727],[-73.6243,41.7713],[-73.627,41.772],[-73.6284,41.7711],[-73.6276,41.7693],[-73.6315,41.7688],[-73.632,41.7715],[-73.6368,41.771],[-73.6358,41.7653],[-73.6327,41.7656],[-73.6319,41.7601],[-73.6265,41.7603],[-73.6248,41.7558],[-73.6353,41.7545],[-73.6324,41.7534],[-73.635,41.7528],[-73.6267,41.7536],[-73.6245,41.7529],[-73.6239,41.7505],[-73.6269,41.7519],[-73.6256,41.7471],[-73.633,41.7458],[-73.6324,41.7443],[-73.6516,41.7421],[-73.6487,41.7299],[-73.6462,41.729],[-73.6469,41.7279],[-73.6444,41.7244],[-73.6525,41.7226],[-73.6522,41.7209],[-73.6471,41.7182],[-73.651,41.7015],[-73.6358,41.7019],[-73.6301,41.6398],[-73.6253,41.6403],[-73.625,41.6363],[-73.6213,41.635],[-73.6117,41.6329],[-73.6049,41.6333],[-73.6001,41.6314],[-73.5979,41.627],[-73.6003,41.6265],[-73.5989,41.6116],[-73.521,41.6198],[-73.5116,41.7479]]]},"properties":{"name":"Dover Union Free School District"}},{"type":"Feature","geometry":{"type":"MultiPolygon","coordinates":[[[[-73.9269,42.0153],[-73.9278,42.0129],[-73.9271,42.0119],[-73.9269,42.0153]]],[[[-73.9266,42.0155],[-73.9271,42.0265],[-73.9277,42.0161],[-73.9266,42.0155]]],[[[-73.9256,42.0368],[-73.9261,42.0454],[-73.9267,42.0367],[-73.9256,42.0368]]],[[[-73.8081,42.1262],[-73.8128,42.127],[-73.8122,42.132],[-73.8203,42.1328],[-73.8205,42.1281],[-73.8251,42.1277],[-73.8274,42.1223],[-73.8396,42.1219],[-73.8363,42.1181],[-73.8363,42.1106],[-73.8318,42.1106],[-73.8302,42.1056],[-73.8269,42.1036],[-73.8319,42.0998],[-73.8311,42.0923],[-73.838,42.0923],[-73.8379,42.0909],[-73.8419,42.0886],[-73.8425,42.0902],[-73.8449,42.0898],[-73.8455,42.0821],[-73.8471,42.0817],[-73.8465,42.0794],[-73.8485,42.0795],[-73.847,42.0746],[-73.8482,42.0725],[-73.8584,42.07],[-73.8585,42.068],[-73.8653,42.0674],[-73.8659,42.0654],[-73.8677,42.0652],[-73.9033,42.0782],[-73.9156,42.0809],[-73.9171,42.0765],[-73.9216,42.0773],[-73.9233,42.0694],[-73.9258,42.0655],[-73.9263,42.0456],[-73.9252,42.0455],[-73.925,42.0513],[-73.9248,42.0496],[-73.9193,42.0498],[-73.917,42.0417],[-73.9149,42.0409],[-73.9136,42.0435],[-73.9178,42.037],[-73.9189,42.0324],[-73.9258,42.0318],[-73.9266,42.0363],[-73.927,42.0323],[-73.928,42.0366],[-73.9306,42.0329],[-73.932,42.0276],[-73.9295,42.0275],[-73.9298,42.0259],[-73.9285,42.026],[-73.9275,42.0292],[-73.9263,42.0268],[-73.9263,42.03],[-73.9214,42.0286],[-73.9206,42.0301],[-73.9212,42.0285],[-73.9185,42.0241],[-73.9204,42.0206],[-73.9175,42.0173],[-73.9217,42.0156],[-73.9244,42.0088],[-73.9277,42.0083],[-73.9278,42.0117],[-73.9329,42.0007],[-73.9333,41.9937],[-73.9314,41.9917],[-73.9302,41.993],[-73.9292,41.9918],[-73.9199,41.992],[-73.9199,41.9905],[-73.9154,41.9896],[-73.9145,41.9875],[-73.9091,41.988],[-73.9084,41.9848],[-73.9115,41.9844],[-73.9108,41.9809],[-73.9097,41.9828],[-73.9069,41.981],[-73.907,41.979],[-73.9109,41.9787],[-73.9086,41.9744],[-73.8739,41.9674],[-73.8452,41.9698],[-73.848,41.9661],[-73.8403,41.9634],[-73.8411,41.9614],[-73.8362,41.9605],[-73.837,41.9589],[-73.834,41.9568],[-73.8315,41.9572],[-73.8304,41.9599],[-73.8253,41.9589],[-73.8276,41.9574],[-73.8261,41.9561],[-73.8239,41.9572],[-73.8243,41.9538],[-73.8205,41.9526],[-73.8206,41.9507],[-73.817,41.9509],[-73.8205,41.9499],[-73.8205,41.9467],[-73.8164,41.9468],[-73.8169,41.9444],[-73.8127,41.945],[-73.8131,41.9499],[-73.8116,41.95],[-73.8118,41.9546],[-73.8141,41.9547],[-73.8146,41.9604],[-73.8075,41.961],[-73.8113,41.9403],[-73.8087,41.9419],[-73.8074,41.9521],[-73.8053,41.9546],[-73.8052,41.9502],[-73.8033,41.9504],[-73.8036,41.9482],[-73.795,41.9492],[-73.7946,41.9449],[-73.7865,41.9449],[-73.7855,41.9385],[-73.7835,41.9378],[-73.7841,41.9349],[-73.782,41.9347],[-73.7802,41.9391],[-73.7654,41.9403],[-73.768,41.9536],[-73.7646,41.9613],[-73.7628,41.9619],[-73.7634,41.9641],[-73.7598,41.9643],[-73.7604,41.9668],[-73.7593,41.9672],[-73.7609,41.9673],[-73.762,41.9709],[-73.7644,41.9727],[-73.7672,41.9825],[-73.7655,41.9833],[-73.7676,41.986],[-73.7653,41.9866],[-73.7671,41.9919],[-73.7652,41.9915],[-73.764,41.9949],[-73.7668,41.9961],[-73.7675,42.0043],[-73.7668,42.006],[-73.7624,42.0063],[-73.7675,42.0125],[-73.7697,42.0098],[-73.7784,42.0112],[-73.7759,42.0153],[-73.7757,42.0195],[-73.7803,42.0203],[-73.7791,42.0251],[-73.7874,42.0273],[-73.7861,42.0329],[-73.7915,42.0347],[-73.7909,42.0368],[-73.8068,42.0426],[-73.8062,42.0445],[-73.8086,42.0452],[-73.8073,42.0477],[-73.8172,42.0463],[-73.8216,42.0489],[-73.8194,42.0539],[-73.8131,42.0538],[-73.8142,42.0631],[-73.8082,42.0735],[-73.8115,42.076],[-73.8086,42.0777],[-73.8105,42.0851],[-73.8079,42.0916],[-73.8098,42.0938],[-73.7988,42.0937],[-73.8008,42.1033],[-73.7964,42.1035],[-73.7964,42.1052],[-73.7898,42.1115],[-73.7994,42.1119],[-73.7913,42.1243],[-73.7976,42.1263],[-73.7984,42.1251],[-73.8081,42.1262]]]]},"properties":{"name":"Red Hook Central School District"}},{"type":"Feature","geometry":{"type":"MultiPolygon","coordinates":[[[[-73.6634,41.8479],[-73.6658,41.8484],[-73.6637,41.8474],[-73.6634,41.8479]]],[[[-73.7444,41.858],[-73.7445,41.8594],[-73.7529,41.8588],[-73.7532,41.8539],[-73.7546,41.8538],[-73.7554,41.8585],[-73.7581,41.8585],[-73.7581,41.8517],[-73.7606,41.8498],[-73.7631,41.8509],[-73.7642,41.8563],[-73.7624,41.8475],[-73.7697,41.8471],[-73.7698,41.8518],[-73.7725,41.8518],[-73.7732,41.8542],[-73.7797,41.8541],[-73.7803,41.8521],[-73.7858,41.852],[-73.7852,41.8467],[-73.784,41.8468],[-73.7835,41.8425],[-73.7813,41.84],[-73.7831,41.8398],[-73.7807,41.831],[-73.7817,41.8296],[-73.7884,41.8296],[-73.7841,41.8232],[-73.7795,41.8236],[-73.7794,41.8218],[-73.7743,41.821],[-73.7734,41.8151],[-73.7778,41.8119],[-73.7722,41.8118],[-73.7713,41.8093],[-73.7726,41.8073],[-73.7707,41.8059],[-73.7722,41.8011],[-73.7701,41.8008],[-73.7733,41.7943],[-73.7727,41.7927],[-73.7675,41.7931],[-73.767,41.7899],[-73.7696,41.7895],[-73.7698,41.785],[-73.7588,41.7857],[-73.753,41.7876],[-73.7504,41.7635],[-73.7547,41.7613],[-73.758,41.7616],[-73.758,41.7601],[-73.7544,41.7599],[-73.7532,41.7552],[-73.747,41.7537],[-73.7431,41.7314],[-73.7581,41.7295],[-73.7616,41.7229],[-73.7589,41.7241],[-73.7561,41.7232],[-73.7572,41.7155],[-73.7622,41.7143],[-73.7637,41.7101],[-73.7617,41.7047],[-73.7651,41.7027],[-73.7668,41.6995],[-73.7643,41.6969],[-73.7609,41.6961],[-73.7616,41.6946],[-73.7556,41.6952],[-73.7553,41.6929],[-73.7469,41.6937],[-73.747,41.6961],[-73.7421,41.7017],[-73.7416,41.6878],[-73.7129,41.6907],[-73.7133,41.6941],[-73.6806,41.6827],[-73.6814,41.6766],[-73.6571,41.6736],[-73.6508,41.6909],[-73.6473,41.6908],[-73.6465,41.6746],[-73.6332,41.6746],[-73.6358,41.7019],[-73.651,41.7015],[-73.6471,41.7182],[-73.6522,41.7209],[-73.6525,41.7226],[-73.6444,41.7244],[-73.6469,41.7279],[-73.6462,41.729],[-73.6487,41.7299],[-73.6516,41.7421],[-73.6324,41.7443],[-73.633,41.7458],[-73.6256,41.7471],[-73.6269,41.7519],[-73.6239,41.7505],[-73.6245,41.7529],[-73.6267,41.7536],[-73.635,41.7528],[-73.6324,41.7534],[-73.6353,41.7545],[-73.6248,41.7558],[-73.6265,41.7603],[-73.6319,41.7601],[-73.6327,41.7656],[-73.6358,41.7653],[-73.6368,41.771],[-73.632,41.7715],[-73.6315,41.7688],[-73.6276,41.7693],[-73.6284,41.7711],[-73.627,41.772],[-73.6243,41.7713],[-73.6217,41.7727],[-73.6207,41.7706],[-73.6124,41.7714],[-73.6166,41.7831],[-73.6191,41.783],[-73.62,41.788],[-73.6136,41.7905],[-73.6168,41.8053],[-73.6034,41.8064],[-73.601,41.8086],[-73.6029,41.8114],[-73.597,41.812],[-73.606,41.8503],[-73.6284,41.8484],[-73.6303,41.8437],[-73.6344,41.8433],[-73.6347,41.8473],[-73.6293,41.8483],[-73.6677,41.8445],[-73.6686,41.8504],[-73.6867,41.8487],[-73.688,41.8467],[-73.6906,41.8463],[-73.6906,41.8425],[-73.7474,41.8377],[-73.7446,41.8476],[-73.7422,41.8474],[-73.7421,41.8581],[-73.7444,41.858]]]]},"properties":{"name":"Millbrook Central School District"}},{"type":"Feature","geometry":{"type":"MultiPolygon","coordinates":[[[[-73.8701,41.7422],[-73.8745,41.7431],[-73.8691,41.7413],[-73.8701,41.7422]]],[[[-73.788,41.7935],[-73.788,41.7957],[-73.792,41.7952],[-73.7917,41.7922],[-73.8016,41.7872],[-73.803,41.7878],[-73.8018,41.7914],[-73.8036,41.7915],[-73.8038,41.7933],[-73.8072,41.7933],[-73.8068,41.7915],[-73.8091,41.7912],[-73.809,41.7888],[-73.8126,41.7884],[-73.8126,41.7822],[-73.8151,41.7789],[-73.8163,41.7811],[-73.8193,41.7795],[-73.8188,41.7826],[-73.8214,41.7778],[-73.8233,41.7788],[-73.8283,41.7753],[-73.829,41.7801],[-73.8324,41.7796],[-73.8339,41.781],[-73.8306,41.7822],[-73.832,41.7839],[-73.8263,41.7858],[-73.8268,41.7919],[-73.8294,41.7944],[-73.8391,41.7942],[-73.8389,41.7927],[-73.8425,41.7924],[-73.8432,41.7953],[-73.845,41.7952],[-73.8449,41.7878],[-73.8489,41.7872],[-73.8493,41.7835],[-73.8521,41.7834],[-73.8529,41.7814],[-73.8509,41.7807],[-73.85,41.7759],[-73.8517,41.7748],[-73.851,41.7681],[-73.8534,41.7677],[-73.8535,41.7659],[-73.8575,41.7657],[-73.8554,41.7534],[-73.8654,41.7538],[-73.8655,41.751],[-73.8589,41.7501],[-73.8587,41.7447],[-73.8608,41.7448],[-73.8601,41.7418],[-73.8673,41.742],[-73.8669,41.7383],[-73.8686,41.7381],[-73.8682,41.7362],[-73.8701,41.7362],[-73.8711,41.7298],[-73.8815,41.7256],[-73.8814,41.7223],[-73.8756,41.7202],[-73.8803,41.7173],[-73.8801,41.7143],[-73.8839,41.7143],[-73.8856,41.712],[-73.8921,41.7134],[-73.893,41.7118],[-73.8891,41.7094],[-73.8929,41.7079],[-73.8953,41.7078],[-73.8988,41.7123],[-73.9016,41.7053],[-73.9041,41.7055],[-73.906,41.7087],[-73.9055,41.6916],[-73.9096,41.6916],[-73.9056,41.6908],[-73.9084,41.6854],[-73.8908,41.6785],[-73.8912,41.6703],[-73.9022,41.6714],[-73.9017,41.6666],[-73.9052,41.6623],[-73.9034,41.6622],[-73.9044,41.6597],[-73.8903,41.6563],[-73.8747,41.6556],[-73.8733,41.6541],[-73.8706,41.6581],[-73.8727,41.6614],[-73.8689,41.664],[-73.8574,41.6587],[-73.8628,41.6519],[-73.8595,41.646],[-73.8602,41.6439],[-73.8576,41.6424],[-73.8585,41.6412],[-73.8439,41.6388],[-73.8478,41.6355],[-73.8402,41.625],[-73.8373,41.6262],[-73.8353,41.624],[-73.83,41.6276],[-73.8228,41.618],[-73.8224,41.6196],[-73.8188,41.6196],[-73.8124,41.6152],[-73.8096,41.6167],[-73.8125,41.6214],[-73.8049,41.625],[-73.8049,41.6269],[-73.8071,41.6272],[-73.8051,41.6294],[-73.8071,41.633],[-73.8038,41.6325],[-73.8031,41.6304],[-73.7918,41.6306],[-73.7914,41.6271],[-73.7849,41.6183],[-73.7943,41.6128],[-73.7877,41.6038],[-73.7661,41.6145],[-73.7679,41.6176],[-73.7649,41.618],[-73.7617,41.6134],[-73.7562,41.6156],[-73.7334,41.5874],[-73.7343,41.5824],[-73.7317,41.5822],[-73.7315,41.5805],[-73.7284,41.5813],[-73.7136,41.5607],[-73.7096,41.5576],[-73.7063,41.5577],[-73.7074,41.5599],[-73.7012,41.5605],[-73.7015,41.564],[-73.6962,41.5647],[-73.6808,41.5745],[-73.6806,41.5733],[-73.6759,41.5738],[-73.6752,41.5757],[-73.6673,41.5751],[-73.665,41.582],[-73.6561,41.583],[-73.6576,41.5849],[-73.6534,41.5859],[-73.6505,41.584],[-73.6476,41.5844],[-73.646,41.5876],[-73.6431,41.5881],[-73.6437,41.5916],[-73.6401,41.5922],[-73.6417,41.5994],[-73.6379,41.6],[-73.6378,41.6024],[-73.6282,41.6083],[-73.6332,41.6746],[-73.6465,41.6746],[-73.6473,41.6908],[-73.6508,41.6909],[-73.6571,41.6736],[-73.6814,41.6766],[-73.6806,41.6827],[-73.7133,41.6941],[-73.7129,41.6907],[-73.7416,41.6878],[-73.7421,41.7017],[-73.747,41.6961],[-73.7469,41.6937],[-73.7553,41.6929],[-73.7556,41.6952],[-73.7616,41.6946],[-73.7609,41.6961],[-73.7643,41.6969],[-73.7668,41.6996],[-73.7651,41.7027],[-73.7617,41.7047],[-73.7637,41.7101],[-73.7622,41.7143],[-73.7572,41.7155],[-73.7561,41.7232],[-73.7589,41.7241],[-73.7616,41.7229],[-73.7594,41.7273],[-73.7581,41.7295],[-73.7431,41.7313],[-73.747,41.7537],[-73.7532,41.7552],[-73.7544,41.7599],[-73.758,41.7601],[-73.758,41.7616],[-73.7547,41.7613],[-73.7504,41.7635],[-73.753,41.7876],[-73.7588,41.7857],[-73.7698,41.785],[-73.7696,41.7895],[-73.767,41.7899],[-73.7675,41.7931],[-73.7752,41.7928],[-73.7734,41.7953],[-73.7836,41.7948],[-73.7878,41.7904],[-73.7891,41.7925],[-73.788,41.7935]],[[-73.8537,41.742],[-73.8528,41.7385],[-73.8587,41.7386],[-73.8537,41.742]]]]},"properties":{"name":"Arlington Central School District"}},{"type":"Feature","geometry":{"type":"MultiPolygon","coordinates":[[[[-73.8534,41.7423],[-73.8587,41.7386],[-73.8528,41.7385],[-73.8534,41.7423]]],[[[-73.7728,41.7929],[-73.7756,41.794],[-73.7752,41.7928],[-73.7728,41.7929]]],[[[-73.897,41.8795],[-73.8988,41.8845],[-73.9021,41.8841],[-73.9044,41.8781],[-73.9089,41.875],[-73.9051,41.8753],[-73.906,41.8716],[-73.9044,41.8717],[-73.9062,41.8688],[-73.9046,41.867],[-73.9082,41.8658],[-73.9159,41.8678],[-73.916,41.8716],[-73.926,41.8723],[-73.9272,41.8712],[-73.9287,41.873],[-73.9282,41.8657],[-73.9345,41.8607],[-73.9329,41.8593],[-73.9346,41.8563],[-73.9398,41.8556],[-73.9432,41.8513],[-73.9448,41.8392],[-73.9435,41.8352],[-73.9414,41.8358],[-73.9431,41.8333],[-73.9426,41.8313],[-73.9413,41.8315],[-73.9431,41.8182],[-73.9444,41.8178],[-73.9433,41.816],[-73.9451,41.8111],[-73.9436,41.8093],[-73.9452,41.8046],[-73.9441,41.8011],[-73.9469,41.7915],[-73.9485,41.773],[-73.9475,41.7691],[-73.9391,41.759],[-73.9363,41.7522],[-73.9362,41.7414],[-73.9375,41.7394],[-73.9358,41.7359],[-73.9375,41.7345],[-73.9362,41.7321],[-73.9399,41.7146],[-73.9069,41.717],[-73.9056,41.7091],[-73.9026,41.7145],[-73.904,41.7082],[-73.9065,41.7088],[-73.9065,41.7064],[-73.906,41.7087],[-73.9041,41.7055],[-73.9016,41.7053],[-73.8988,41.7123],[-73.8953,41.7078],[-73.8929,41.7079],[-73.8891,41.7094],[-73.893,41.7118],[-73.8921,41.7134],[-73.8856,41.712],[-73.8839,41.7143],[-73.8801,41.7143],[-73.8803,41.7173],[-73.8756,41.7202],[-73.8814,41.7223],[-73.8815,41.7256],[-73.8711,41.7298],[-73.8701,41.7362],[-73.8682,41.7362],[-73.8686,41.7381],[-73.8669,41.7383],[-73.8673,41.742],[-73.8601,41.7418],[-73.8608,41.7448],[-73.8587,41.7447],[-73.8589,41.7501],[-73.8655,41.751],[-73.8654,41.7538],[-73.8554,41.7534],[-73.8575,41.7657],[-73.8535,41.7659],[-73.8534,41.7677],[-73.851,41.7681],[-73.8517,41.7748],[-73.85,41.7759],[-73.8509,41.7807],[-73.8529,41.7814],[-73.8521,41.7834],[-73.8493,41.7835],[-73.8489,41.7872],[-73.8449,41.7878],[-73.845,41.7952],[-73.8432,41.7953],[-73.8425,41.7924],[-73.8389,41.7927],[-73.8391,41.7942],[-73.8294,41.7944],[-73.8268,41.7919],[-73.8263,41.7858],[-73.832,41.7839],[-73.8306,41.7822],[-73.8339,41.781],[-73.8324,41.7796],[-73.829,41.7801],[-73.8283,41.7753],[-73.8233,41.7788],[-73.8214,41.7778],[-73.8188,41.7826],[-73.8193,41.7795],[-73.8163,41.7811],[-73.8151,41.7789],[-73.8126,41.7822],[-73.8126,41.7884],[-73.809,41.7888],[-73.8091,41.7912],[-73.8068,41.7915],[-73.8072,41.7933],[-73.8038,41.7933],[-73.8036,41.7915],[-73.8018,41.7914],[-73.803,41.7878],[-73.8016,41.7872],[-73.7917,41.7922],[-73.792,41.7952],[-73.7876,41.7954],[-73.7891,41.7925],[-73.7878,41.7904],[-73.7836,41.7948],[-73.7734,41.7953],[-73.7701,41.8008],[-73.7722,41.8011],[-73.7707,41.8059],[-73.7726,41.8073],[-73.7713,41.8093],[-73.7722,41.8118],[-73.7778,41.8119],[-73.7734,41.8151],[-73.7743,41.821],[-73.7794,41.8218],[-73.7795,41.8236],[-73.7841,41.8232],[-73.7884,41.8296],[-73.7817,41.8296],[-73.7807,41.831],[-73.7831,41.8398],[-73.7813,41.84],[-73.7835,41.8425],[-73.784,41.8468],[-73.7925,41.8465],[-73.793,41.8504],[-73.7915,41.8513],[-73.7957,41.8515],[-73.7964,41.8562],[-73.7916,41.857],[-73.7945,41.8655],[-73.812,41.8639],[-73.8121,41.8673],[-73.8095,41.8695],[-73.8095,41.8725],[-73.8404,41.8694],[-73.8407,41.867],[-73.8431,41.8748],[-73.8513,41.8761],[-73.855,41.8761],[-73.854,41.8704],[-73.8575,41.8701],[-73.8569,41.8664],[-73.8602,41.8641],[-73.8611,41.8697],[-73.8661,41.8694],[-73.8676,41.8796],[-73.8664,41.8826],[-73.8742,41.8785],[-73.8773,41.8742],[-73.8895,41.8733],[-73.8905,41.877],[-73.8986,41.8761],[-73.8969,41.8773],[-73.897,41.8795]],[[-73.871,41.7414],[-73.8745,41.7431],[-73.8691,41.7413],[-73.871,41.7414]]]]},"properties":{"name":"Hyde Park Central School District"}},{"type":"Feature","geometry":{"type":"MultiPolygon","coordinates":[[[[-73.9274,41.8723],[-73.9275,41.8726],[-73.9278,41.8722],[-73.9274,41.8723]]],[[[-73.9279,41.8738],[-73.9287,41.873],[-73.9275,41.873],[-73.9279,41.8738]]],[[[-73.9317,41.9931],[-73.9333,41.9937],[-73.9348,41.9914],[-73.9343,41.9879],[-73.9386,41.9743],[-73.9414,41.9702],[-73.946,41.9529],[-73.9441,41.9364],[-73.9537,41.9201],[-73.9567,41.9062],[-73.9552,41.9017],[-73.9319,41.8789],[-73.9293,41.8742],[-73.9281,41.8745],[-73.9288,41.8762],[-73.9345,41.8822],[-73.9292,41.8805],[-73.9269,41.8821],[-73.9271,41.8793],[-73.9237,41.8793],[-73.9268,41.8723],[-73.916,41.8716],[-73.9159,41.8678],[-73.912,41.8674],[-73.9113,41.8656],[-73.9046,41.867],[-73.9062,41.8688],[-73.9044,41.8717],[-73.906,41.8716],[-73.9051,41.8753],[-73.9089,41.875],[-73.9044,41.8781],[-73.9021,41.8841],[-73.8988,41.8845],[-73.8968,41.8775],[-73.8986,41.8761],[-73.8905,41.877],[-73.8895,41.8733],[-73.8773,41.8742],[-73.8742,41.8785],[-73.8664,41.8826],[-73.8676,41.8796],[-73.8661,41.8694],[-73.8611,41.8697],[-73.8602,41.8641],[-73.8569,41.8664],[-73.8575,41.8701],[-73.854,41.8704],[-73.855,41.8761],[-73.8513,41.8761],[-73.8431,41.8748],[-73.8407,41.867],[-73.8404,41.8694],[-73.8095,41.8725],[-73.8095,41.8695],[-73.8121,41.8673],[-73.812,41.8639],[-73.7945,41.8655],[-73.797,41.87],[-73.7941,41.8723],[-73.7881,41.8728],[-73.7886,41.8751],[-73.7868,41.8753],[-73.7873,41.8783],[-73.7856,41.8796],[-73.769,41.8809],[-73.7703,41.8886],[-73.7587,41.8896],[-73.7592,41.8955],[-73.7574,41.8957],[-73.7582,41.9026],[-73.7529,41.9035],[-73.7538,41.91],[-73.7514,41.9119],[-73.7515,41.9166],[-73.7663,41.9176],[-73.7672,41.9208],[-73.7718,41.9204],[-73.7716,41.9255],[-73.7833,41.9241],[-73.7838,41.9273],[-73.7855,41.9274],[-73.7865,41.9449],[-73.7946,41.9449],[-73.795,41.9492],[-73.8036,41.9482],[-73.8033,41.9504],[-73.8052,41.9502],[-73.8053,41.9546],[-73.8074,41.9521],[-73.8087,41.9419],[-73.8113,41.9403],[-73.8075,41.961],[-73.8146,41.9604],[-73.8141,41.9547],[-73.8118,41.9546],[-73.8116,41.95],[-73.8131,41.9499],[-73.8127,41.945],[-73.8169,41.9444],[-73.8164,41.9468],[-73.8205,41.9467],[-73.8205,41.9499],[-73.817,41.9509],[-73.8206,41.9507],[-73.8205,41.9526],[-73.8243,41.9538],[-73.8239,41.9572],[-73.8261,41.9561],[-73.8276,41.9574],[-73.8253,41.9589],[-73.8304,41.9599],[-73.8315,41.9572],[-73.834,41.9568],[-73.837,41.9589],[-73.8362,41.9605],[-73.8411,41.9614],[-73.8403,41.9634],[-73.848,41.9661],[-73.8452,41.9698],[-73.8739,41.9674],[-73.9086,41.9744],[-73.9109,41.9787],[-73.907,41.979],[-73.9069,41.981],[-73.9097,41.9828],[-73.9108,41.9809],[-73.9115,41.9844],[-73.9084,41.9848],[-73.9091,41.988],[-73.9145,41.9875],[-73.9154,41.9896],[-73.9199,41.9905],[-73.9199,41.992],[-73.9292,41.9918],[-73.9302,41.993],[-73.9314,41.9917],[-73.9317,41.9931]]]]},"properties":{"name":"Rhinebeck Central School District"}},{"type":"Feature","geometry":{"type":"MultiPolygon","coordinates":[[[[-73.8946,41.5102],[-73.8958,41.5102],[-73.8922,41.51],[-73.8946,41.5102]]],[[[-73.8599,41.6544],[-73.8574,41.6587],[-73.8689,41.664],[-73.8727,41.6614],[-73.8706,41.6581],[-73.8733,41.6541],[-73.8747,41.6556],[-73.8961,41.6577],[-73.8983,41.6505],[-73.8951,41.6494],[-73.8979,41.6451],[-73.9026,41.6442],[-73.8992,41.6424],[-73.9006,41.639],[-73.9156,41.6429],[-73.9193,41.6399],[-73.9192,41.6361],[-73.9275,41.6353],[-73.9281,41.6342],[-73.9339,41.6363],[-73.9362,41.6269],[-73.946,41.6325],[-73.9487,41.6197],[-73.9458,41.6145],[-73.9442,41.6021],[-73.9478,41.5917],[-73.9505,41.5897],[-73.9508,41.5875],[-73.9503,41.5854],[-73.9481,41.5856],[-73.947,41.5823],[-73.9484,41.577],[-73.9552,41.5677],[-73.9522,41.565],[-73.9451,41.5673],[-73.9436,41.5656],[-73.9442,41.5634],[-73.9428,41.5628],[-73.9438,41.5622],[-73.939,41.5608],[-73.9411,41.5586],[-73.9342,41.5556],[-73.929,41.5592],[-73.9239,41.5524],[-73.9275,41.5497],[-73.9254,41.5474],[-73.9283,41.5452],[-73.9294,41.5417],[-73.928,41.5412],[-73.9255,41.5439],[-73.9249,41.5421],[-73.9265,41.541],[-73.9231,41.5407],[-73.9244,41.5392],[-73.9311,41.5385],[-73.925,41.5247],[-73.9201,41.5261],[-73.9214,41.5247],[-73.9181,41.5218],[-73.9152,41.5235],[-73.9126,41.5212],[-73.9156,41.52],[-73.9139,41.5185],[-73.9156,41.5173],[-73.9109,41.5141],[-73.915,41.5083],[-73.9132,41.507],[-73.8999,41.5111],[-73.8983,41.5109],[-73.8988,41.5084],[-73.8975,41.5077],[-73.8932,41.5123],[-73.894,41.5109],[-73.89,41.5111],[-73.8911,41.5075],[-73.8948,41.5084],[-73.8966,41.5037],[-73.8997,41.5026],[-73.8986,41.5022],[-73.8978,41.4928],[-73.8565,41.4965],[-73.8563,41.4926],[-73.8438,41.4903],[-73.8384,41.4945],[-73.837,41.4633],[-73.8195,41.4886],[-73.8201,41.4915],[-73.8167,41.4978],[-73.8132,41.5007],[-73.8144,41.5006],[-73.8106,41.5076],[-73.802,41.5049],[-73.7986,41.5084],[-73.7951,41.5078],[-73.7931,41.5068],[-73.7956,41.5023],[-73.7707,41.5044],[-73.7683,41.5064],[-73.771,41.5083],[-73.7697,41.5099],[-73.7732,41.514],[-73.7716,41.5174],[-73.7744,41.5208],[-73.7702,41.5277],[-73.7618,41.5307],[-73.7604,41.5347],[-73.7556,41.5383],[-73.7576,41.5403],[-73.757,41.5418],[-73.7509,41.5421],[-73.7493,41.5438],[-73.7501,41.5449],[-73.7471,41.5462],[-73.7457,41.543],[-73.7399,41.5419],[-73.7374,41.5387],[-73.7275,41.5407],[-73.728,41.5381],[-73.7204,41.5374],[-73.7216,41.5314],[-73.7165,41.5314],[-73.7152,41.538],[-73.7177,41.5412],[-73.7099,41.5487],[-73.7103,41.5508],[-73.7053,41.5525],[-73.7136,41.5607],[-73.7284,41.5813],[-73.7315,41.5805],[-73.7317,41.5822],[-73.7343,41.5824],[-73.7334,41.5874],[-73.7562,41.6156],[-73.7617,41.6134],[-73.7649,41.618],[-73.7679,41.6176],[-73.7661,41.6145],[-73.7877,41.6038],[-73.7943,41.6128],[-73.7849,41.6183],[-73.7914,41.6271],[-73.7918,41.6306],[-73.8031,41.6304],[-73.8038,41.6325],[-73.8071,41.633],[-73.8051,41.6294],[-73.8071,41.6272],[-73.8049,41.6269],[-73.8049,41.625],[-73.8125,41.6214],[-73.8096,41.6167],[-73.8124,41.6152],[-73.8192,41.6197],[-73.8224,41.6196],[-73.8228,41.618],[-73.83,41.6276],[-73.8353,41.624],[-73.8373,41.6262],[-73.8402,41.625],[-73.8478,41.6355],[-73.8439,41.6388],[-73.8585,41.6412],[-73.8576,41.6424],[-73.8602,41.6439],[-73.8595,41.646],[-73.8628,41.6519],[-73.8599,41.6544]]]]},"properties":{"name":"Wappingers Central School District"}},{"type":"Feature","geometry":{"type":"Polygon","coordinates":[[[-73.6599,42.0535],[-73.6631,42.0535],[-73.6656,42.0516],[-73.6746,42.0528],[-73.6737,42.0567],[-73.6814,42.0565],[-73.683,42.0539],[-73.6857,42.0546],[-73.6842,42.0554],[-73.6846,42.0587],[-73.692,42.0581],[-73.6921,42.0598],[-73.702,42.0626],[-73.7095,42.0514],[-73.7077,42.0512],[-73.7085,42.049],[-73.7122,42.0491],[-73.7132,42.0457],[-73.7288,42.0467],[-73.7308,42.0426],[-73.733,42.0422],[-73.7321,42.05],[-73.7264,42.0626],[-73.7327,42.0615],[-73.7357,42.0551],[-73.7374,42.0553],[-73.7364,42.0603],[-73.738,42.0605],[-73.745,42.0607],[-73.747,42.0568],[-73.7555,42.0581],[-73.7573,42.0564],[-73.7576,42.0584],[-73.7601,42.0587],[-73.7594,42.0641],[-73.7674,42.0674],[-73.7706,42.0663],[-73.7702,42.0725],[-73.7788,42.0749],[-73.7799,42.073],[-73.7902,42.0774],[-73.7903,42.0762],[-73.7939,42.0772],[-73.7951,42.0754],[-73.8114,42.0765],[-73.8082,42.0735],[-73.8142,42.0631],[-73.8131,42.0538],[-73.8194,42.0539],[-73.8216,42.0489],[-73.8172,42.0463],[-73.8073,42.0477],[-73.8086,42.0452],[-73.8062,42.0445],[-73.8068,42.0426],[-73.7909,42.0368],[-73.7915,42.0347],[-73.7861,42.0329],[-73.7874,42.0273],[-73.7791,42.0251],[-73.7803,42.0203],[-73.7757,42.0195],[-73.7759,42.0153],[-73.7784,42.0112],[-73.7697,42.0098],[-73.7675,42.0125],[-73.7624,42.0063],[-73.7668,42.006],[-73.7675,42.0043],[-73.7668,41.9961],[-73.764,41.9949],[-73.7652,41.9915],[-73.7671,41.9919],[-73.7653,41.9866],[-73.7676,41.986],[-73.7655,41.9833],[-73.7672,41.9825],[-73.7644,41.9727],[-73.762,41.9709],[-73.7609,41.9673],[-73.7593,41.9672],[-73.7604,41.9668],[-73.7598,41.9643],[-73.7634,41.9641],[-73.7628,41.9619],[-73.7646,41.9613],[-73.768,41.9536],[-73.7654,41.9403],[-73.7802,41.9391],[-73.782,41.9347],[-73.7841,41.9349],[-73.7835,41.9378],[-73.7855,41.9385],[-73.7855,41.9274],[-73.7838,41.9273],[-73.7833,41.9241],[-73.7716,41.9255],[-73.7718,41.9204],[-73.7672,41.9208],[-73.7663,41.9176],[-73.7515,41.9166],[-73.7514,41.9119],[-73.7538,41.91],[-73.7529,41.9035],[-73.7582,41.9026],[-73.7574,41.8957],[-73.7592,41.8955],[-73.7587,41.8896],[-73.7703,41.8886],[-73.769,41.8809],[-73.7856,41.8796],[-73.7873,41.8783],[-73.7868,41.8753],[-73.7886,41.8751],[-73.7881,41.8728],[-73.7941,41.8723],[-73.797,41.87],[-73.7916,41.8599],[-73.7916,41.857],[-73.7964,41.8562],[-73.7957,41.8515],[-73.7915,41.8513],[-73.793,41.8504],[-73.7925,41.8465],[-73.7852,41.8467],[-73.7858,41.852],[-73.7803,41.8521],[-73.7797,41.8541],[-73.7732,41.8542],[-73.7725,41.8518],[-73.7698,41.8518],[-73.7697,41.8471],[-73.7624,41.8475],[-73.7642,41.8563],[-73.7631,41.8509],[-73.7606,41.8498],[-73.7581,41.8517],[-73.7581,41.8585],[-73.7554,41.8585],[-73.7546,41.8538],[-73.7532,41.8539],[-73.7529,41.8588],[-73.7445,41.8594],[-73.7444,41.8579],[-73.7421,41.8581],[-73.7415,41.8549],[-73.7422,41.8474],[-73.7446,41.8476],[-73.7474,41.8377],[-73.6906,41.8425],[-73.6906,41.8463],[-73.688,41.8467],[-73.6867,41.8487],[-73.6686,41.8504],[-73.6678,41.8479],[-73.6658,41.8484],[-73.6649,41.856],[-73.6672,41.8559],[-73.6685,41.8614],[-73.6701,41.8617],[-73.6701,41.8654],[-73.6572,41.8674],[-73.658,41.876],[-73.6446,41.8777],[-73.6453,41.8805],[-73.6429,41.8809],[-73.6434,41.8857],[-73.625,41.8885],[-73.6273,41.893],[-73.616,41.894],[-73.6148,41.8883],[-73.601,41.8875],[-73.5992,41.8961],[-73.5971,41.8964],[-73.5985,41.902],[-73.593,41.9017],[-73.5922,41.9045],[-73.5934,41.9081],[-73.5921,41.9083],[-73.5924,41.9112],[-73.594,41.9137],[-73.5978,41.9131],[-73.5987,41.9165],[-73.5847,41.918],[-73.5861,41.9267],[-73.5821,41.9273],[-73.5826,41.9295],[-73.5766,41.9317],[-73.5771,41.9347],[-73.5758,41.9361],[-73.5769,41.9386],[-73.5717,41.9387],[-73.5739,41.941],[-73.5726,41.9423],[-73.5767,41.9496],[-73.5578,41.9523],[-73.5569,41.9659],[-73.5541,41.9674],[-73.5511,41.9611],[-73.5481,41.9621],[-73.5481,41.9639],[-73.538,41.9629],[-73.5363,41.9529],[-73.5294,41.9542],[-73.5289,41.9614],[-73.5321,41.9622],[-73.5349,41.968],[-73.5324,41.9687],[-73.5325,41.9748],[-73.5345,41.977],[-73.5334,41.9788],[-73.5396,41.9797],[-73.5395,41.9855],[-73.5359,41.9854],[-73.5394,41.99],[-73.5505,41.9887],[-73.5563,41.9978],[-73.5589,41.9978],[-73.5611,41.9952],[-73.5665,41.9963],[-73.5704,42.0082],[-73.5677,42.0082],[-73.5659,42.0113],[-73.5612,42.0103],[-73.5618,42.0168],[-73.5629,42.0186],[-73.5755,42.0189],[-73.5804,42.0212],[-73.5804,42.0259],[-73.5763,42.0274],[-73.5773,42.0289],[-73.5814,42.0291],[-73.58,42.0321],[-73.585,42.0329],[-73.5835,42.0378],[-73.5816,42.038],[-73.5786,42.0424],[-73.5805,42.0454],[-73.5797,42.049],[-73.5743,42.0493],[-73.5751,42.0541],[-73.572,42.0583],[-73.5756,42.0587],[-73.5807,42.062],[-73.5792,42.0613],[-73.5753,42.0638],[-73.5737,42.0702],[-73.5764,42.0733],[-73.5871,42.0754],[-73.5875,42.0729],[-73.5897,42.0725],[-73.5895,42.0744],[-73.5912,42.0749],[-73.5918,42.0706],[-73.597,42.0706],[-73.6071,42.0643],[-73.6125,42.065],[-73.6113,42.0576],[-73.6153,42.0557],[-73.6144,42.0532],[-73.6205,42.0484],[-73.6196,42.0444],[-73.6303,42.0461],[-73.6318,42.0403],[-73.6346,42.0427],[-73.6383,42.0233],[-73.6331,42.0174],[-73.6309,42.0185],[-73.6289,42.0163],[-73.6439,42.0148],[-73.6472,42.0348],[-73.6555,42.035],[-73.6557,42.0373],[-73.6607,42.0404],[-73.6621,42.0444],[-73.6559,42.0436],[-73.6561,42.0501],[-73.6603,42.0514],[-73.6599,42.0535]]]},"properties":{"name":"Pine Plains Central School District"}},{"type":"Feature","geometry":{"type":"Polygon","coordinates":[[[-73.9065,41.7064],[-73.9065,41.7088],[-73.904,41.7082],[-73.9026,41.7145],[-73.9056,41.7091],[-73.9069,41.717],[-73.9399,41.7146],[-73.9413,41.7023],[-73.9382,41.6845],[-73.9352,41.6848],[-73.9353,41.6871],[-73.9315,41.6874],[-73.9296,41.6817],[-73.9224,41.6823],[-73.9223,41.6718],[-73.8912,41.6703],[-73.8909,41.6796],[-73.9084,41.6854],[-73.9056,41.6908],[-73.9096,41.6916],[-73.9055,41.6916],[-73.9065,41.7064]]]},"properties":{"name":"Poughkeepsie City School District"}},{"type":"Feature","geometry":{"type":"Polygon","coordinates":[[[-73.9074,41.509],[-73.9132,41.507],[-73.915,41.5083],[-73.9109,41.5141],[-73.9156,41.5173],[-73.9139,41.5185],[-73.9156,41.52],[-73.9126,41.5212],[-73.9152,41.5235],[-73.9181,41.5218],[-73.9214,41.5247],[-73.9201,41.5261],[-73.925,41.5247],[-73.9273,41.5286],[-73.9311,41.5385],[-73.9244,41.5392],[-73.9231,41.5407],[-73.9265,41.541],[-73.9249,41.5421],[-73.9255,41.5439],[-73.9294,41.5414],[-73.9283,41.5452],[-73.9254,41.5474],[-73.9275,41.5497],[-73.9239,41.5524],[-73.929,41.5592],[-73.9347,41.5557],[-73.9411,41.5586],[-73.939,41.5608],[-73.9438,41.5622],[-73.9428,41.5628],[-73.9442,41.5634],[-73.9436,41.5656],[-73.9451,41.5673],[-73.9522,41.565],[-73.9552,41.5677],[-73.9699,41.5552],[-73.9784,41.5353],[-73.9827,41.5319],[-73.9821,41.5287],[-73.9859,41.5161],[-73.9852,41.5088],[-73.9888,41.5079],[-73.9856,41.5075],[-73.9855,41.5054],[-73.9888,41.5052],[-73.9889,41.503],[-73.9862,41.5026],[-73.9832,41.4964],[-73.9833,41.4933],[-73.9865,41.4925],[-73.9881,41.4835],[-73.9838,41.4902],[-73.9769,41.4869],[-73.9812,41.4851],[-73.9828,41.4793],[-73.9845,41.4785],[-73.9856,41.4711],[-73.9843,41.4548],[-73.979,41.4433],[-73.9794,41.4444],[-73.9759,41.4449],[-73.9338,41.4883],[-73.9188,41.4898],[-73.9074,41.509]]]},"properties":{"name":"Beacon City School District"}},{"type":"Feature","geometry":{"type":"Polygon","coordinates":[[[-73.9022,41.6714],[-73.9223,41.6718],[-73.9224,41.6823],[-73.9296,41.6817],[-73.9315,41.6874],[-73.9353,41.6871],[-73.9352,41.6848],[-73.9382,41.6845],[-73.9431,41.67],[-73.9419,41.6576],[-73.9442,41.6498],[-73.9439,41.6404],[-73.946,41.6325],[-73.9362,41.6269],[-73.9339,41.6363],[-73.9281,41.6342],[-73.9275,41.6353],[-73.9192,41.6361],[-73.9193,41.6399],[-73.9156,41.6429],[-73.9006,41.639],[-73.8992,41.6424],[-73.9026,41.6442],[-73.8979,41.6451],[-73.8951,41.6495],[-73.8983,41.6505],[-73.8961,41.6577],[-73.9044,41.6597],[-73.9034,41.6622],[-73.9052,41.6623],[-73.9017,41.6666],[-73.9022,41.6714]]]},"properties":{"name":"Spackenkill Union Free School District"}},{"type":"Feature","geometry":{"type":"MultiPolygon","coordinates":[[[[-73.5286,42.037],[-73.5373,42.0377],[-73.5373,42.0391],[-73.5395,42.0398],[-73.5428,42.0391],[-73.5426,42.0361],[-73.5519,42.0367],[-73.5493,42.0278],[-73.5533,42.0253],[-73.5589,42.0254],[-73.5591,42.0216],[-73.5451,42.0205],[-73.5452,42.0161],[-73.5497,42.0161],[-73.5495,42.0115],[-73.5521,42.0087],[-73.5533,42.0012],[-73.5562,42.0012],[-73.5563,41.9978],[-73.5505,41.9887],[-73.5394,41.99],[-73.5359,41.9854],[-73.5395,41.9855],[-73.5396,41.9797],[-73.5334,41.9788],[-73.5345,41.977],[-73.5325,41.9748],[-73.5324,41.9687],[-73.5349,41.968],[-73.5321,41.9622],[-73.5289,41.9614],[-73.5294,41.9542],[-73.5363,41.9529],[-73.538,41.9629],[-73.5481,41.9639],[-73.5481,41.9621],[-73.5511,41.9611],[-73.5541,41.9674],[-73.5569,41.9659],[-73.5578,41.9523],[-73.5767,41.9496],[-73.5726,41.9423],[-73.5739,41.941],[-73.5717,41.9387],[-73.5769,41.9386],[-73.5758,41.9361],[-73.5771,41.9347],[-73.5766,41.9317],[-73.5826,41.9295],[-73.5821,41.9273],[-73.5861,41.9267],[-73.5847,41.918],[-73.5987,41.9165],[-73.5978,41.9131],[-73.594,41.9137],[-73.5924,41.9112],[-73.5921,41.9083],[-73.5934,41.9081],[-73.5922,41.9045],[-73.593,41.9017],[-73.5985,41.902],[-73.5971,41.8964],[-73.5992,41.8961],[-73.601,41.8875],[-73.6148,41.8883],[-73.616,41.894],[-73.6273,41.893],[-73.625,41.8885],[-73.6434,41.8857],[-73.6429,41.8809],[-73.6453,41.8805],[-73.6446,41.8777],[-73.658,41.876],[-73.6572,41.8674],[-73.6694,41.8658],[-73.6703,41.8631],[-73.6685,41.8614],[-73.6672,41.8559],[-73.6649,41.856],[-73.6644,41.8528],[-73.6658,41.8528],[-73.665,41.8508],[-73.6662,41.8495],[-73.6634,41.8479],[-73.6678,41.8479],[-73.6677,41.8445],[-73.6293,41.8483],[-73.6347,41.8473],[-73.6344,41.8433],[-73.6303,41.8437],[-73.6284,41.8484],[-73.606,41.8503],[-73.597,41.812],[-73.6029,41.8114],[-73.601,41.8086],[-73.6034,41.8064],[-73.6168,41.8053],[-73.6136,41.7905],[-73.6035,41.7909],[-73.6023,41.7869],[-73.5909,41.7879],[-73.5895,41.7784],[-73.5803,41.7796],[-73.5815,41.7841],[-73.5767,41.7849],[-73.5775,41.7888],[-73.5748,41.7893],[-73.5753,41.793],[-73.5602,41.795],[-73.5599,41.7905],[-73.5558,41.7907],[-73.5582,41.7875],[-73.5499,41.7859],[-73.5486,41.7876],[-73.5426,41.7874],[-73.5446,41.7784],[-73.5477,41.7797],[-73.5459,41.7777],[-73.5467,41.776],[-73.5475,41.7778],[-73.5467,41.7773],[-73.5507,41.7727],[-73.5564,41.7711],[-73.5549,41.7687],[-73.5576,41.7643],[-73.5528,41.7641],[-73.5527,41.7621],[-73.5486,41.7636],[-73.545,41.7621],[-73.5453,41.7599],[-73.5388,41.7571],[-73.5384,41.7594],[-73.5356,41.7611],[-73.5282,41.7605],[-73.5289,41.7562],[-73.522,41.7516],[-73.5224,41.7486],[-73.5116,41.7479],[-73.4983,41.8925],[-73.4883,42.0301],[-73.4984,42.0295],[-73.4974,42.0255],[-73.4999,42.0243],[-73.4993,42.0137],[-73.5173,42.0148],[-73.5187,42.0208],[-73.5201,42.0207],[-73.5197,42.018],[-73.5243,42.0183],[-73.5247,42.014],[-73.5279,42.0135],[-73.5289,42.0164],[-73.5344,42.0204],[-73.5321,42.0218],[-73.5335,42.0312],[-73.5319,42.0313],[-73.5286,42.037]]],[[[-73.4054,42.4206],[-73.4146,42.4184],[-73.4165,42.4143],[-73.4143,42.4142],[-73.4146,42.4122],[-73.4112,42.4117],[-73.4131,42.4083],[-73.4078,42.4036],[-73.4082,42.4021],[-73.4008,42.4021],[-73.3995,42.4057],[-73.396,42.4037],[-73.3917,42.4038],[-73.3888,42.4116],[-73.3983,42.4129],[-73.4014,42.4159],[-73.4004,42.4161],[-73.4061,42.4184],[-73.4054,42.4206]]]]},"properties":{"name":"Northeast Central School District"}},{"type":"Feature","geometry":{"type":"MultiPolygon","coordinates":[[[[-73.9427,41.4004],[-73.9425,41.4008],[-73.9434,41.4012],[-73.9427,41.4004]]],[[[-73.9402,41.4008],[-73.9401,41.4018],[-73.9407,41.401],[-73.9402,41.4008]]],[[[-73.9449,41.4026],[-73.9451,41.4027],[-73.9452,41.4026],[-73.9449,41.4026]]],[[[-73.894,41.5109],[-73.8923,41.512],[-73.8961,41.5107],[-73.8975,41.5077],[-73.8988,41.5084],[-73.8983,41.5109],[-73.9074,41.509],[-73.9188,41.4898],[-73.9338,41.4883],[-73.9759,41.4449],[-73.9794,41.4444],[-73.9718,41.4347],[-73.9687,41.4286],[-73.9695,41.4254],[-73.9654,41.4251],[-73.9637,41.4231],[-73.9616,41.419],[-73.9624,41.4172],[-73.9597,41.4148],[-73.9605,41.4139],[-73.957,41.4139],[-73.9553,41.4123],[-73.9557,41.4133],[-73.9472,41.4131],[-73.9522,41.4109],[-73.9548,41.4124],[-73.9532,41.4103],[-73.96,41.4061],[-73.9589,41.4024],[-73.9496,41.4008],[-73.944,41.4042],[-73.9459,41.404],[-73.9418,41.4046],[-73.9436,41.4063],[-73.9422,41.408],[-73.9432,41.4064],[-73.9413,41.405],[-73.9435,41.404],[-73.9439,41.4014],[-73.941,41.4012],[-73.9418,41.4021],[-73.9402,41.402],[-73.9379,41.4149],[-73.9353,41.4111],[-73.9256,41.4128],[-73.922,41.4174],[-73.9179,41.4176],[-73.9174,41.4217],[-73.9082,41.4222],[-73.903,41.4326],[-73.9007,41.4335],[-73.8977,41.4338],[-73.9044,41.4235],[-73.8974,41.424],[-73.8965,41.4268],[-73.8869,41.4319],[-73.8883,41.4098],[-73.881,41.4084],[-73.8782,41.4138],[-73.8721,41.413],[-73.8698,41.4149],[-73.8664,41.4116],[-73.8677,41.4093],[-73.8635,41.4092],[-73.8586,41.4146],[-73.8556,41.4203],[-73.8581,41.4211],[-73.8555,41.4236],[-73.8485,41.4243],[-73.8425,41.4282],[-73.8363,41.4442],[-73.8311,41.453],[-73.8347,41.4542],[-73.8385,41.4524],[-73.8384,41.4945],[-73.8438,41.4903],[-73.8563,41.4926],[-73.8565,41.4965],[-73.8978,41.4928],[-73.8986,41.5022],[-73.8997,41.5026],[-73.8966,41.5037],[-73.8948,41.5084],[-73.8911,41.5075],[-73.89,41.5111],[-73.894,41.5109]],[[-73.8946,41.5096],[-73.8956,41.5107],[-73.8922,41.51],[-73.8946,41.5096]]]]},"properties":{"name":"Haldane Central School District"}},{"type":"Feature","geometry":{"type":"Polygon","coordinates":[[[-73.6625,41.364],[-73.6644,41.3655],[-73.6617,41.371],[-73.6625,41.3736],[-73.6658,41.3741],[-73.666,41.3798],[-73.6672,41.3815],[-73.6716,41.3827],[-73.6715,41.3852],[-73.6762,41.3885],[-73.6928,41.3874],[-73.7043,41.3984],[-73.7041,41.4029],[-73.7068,41.4027],[-73.7083,41.407],[-73.7012,41.4179],[-73.7052,41.4252],[-73.7134,41.4324],[-73.72,41.431],[-73.7208,41.4267],[-73.7257,41.4266],[-73.7271,41.4307],[-73.7471,41.4245],[-73.7492,41.422],[-73.7567,41.419],[-73.755,41.4277],[-73.7581,41.4261],[-73.7589,41.4236],[-73.767,41.4197],[-73.7704,41.4129],[-73.7736,41.4126],[-73.7774,41.4082],[-73.7804,41.4087],[-73.7897,41.3964],[-73.793,41.3971],[-73.7968,41.3947],[-73.8049,41.3884],[-73.8095,41.3804],[-73.81,41.3818],[-73.8117,41.3814],[-73.813,41.3788],[-73.8158,41.3792],[-73.8182,41.3773],[-73.8189,41.3722],[-73.8238,41.3718],[-73.8231,41.3679],[-73.8285,41.3593],[-73.8168,41.3578],[-73.8119,41.3645],[-73.808,41.3651],[-73.8059,41.3563],[-73.8062,41.3482],[-73.7965,41.3505],[-73.795,41.3567],[-73.7862,41.3559],[-73.7838,41.3584],[-73.783,41.3566],[-73.78,41.3557],[-73.7802,41.3505],[-73.7769,41.3531],[-73.7762,41.3513],[-73.7714,41.3524],[-73.7702,41.3508],[-73.7728,41.3477],[-73.7718,41.3435],[-73.6717,41.3539],[-73.6709,41.3566],[-73.6653,41.358],[-73.6625,41.364]]]},"properties":{"name":"Mahopac Central School District"}},{"type":"Feature","geometry":{"type":"Polygon","coordinates":[[[-73.7736,41.4126],[-73.78,41.415],[-73.7806,41.4176],[-73.7819,41.4167],[-73.7864,41.4191],[-73.7825,41.4221],[-73.7843,41.4288],[-73.7919,41.4285],[-73.7894,41.4614],[-73.7953,41.4584],[-73.799,41.4585],[-73.8051,41.4531],[-73.8036,41.4562],[-73.8067,41.4577],[-73.8037,41.4619],[-73.8094,41.4627],[-73.8078,41.464],[-73.8111,41.4651],[-73.8059,41.4754],[-73.8086,41.4751],[-73.8156,41.4693],[-73.8237,41.4671],[-73.8303,41.4616],[-73.8317,41.4567],[-73.8347,41.4542],[-73.8311,41.453],[-73.8363,41.4442],[-73.8438,41.4263],[-73.8555,41.4236],[-73.8581,41.4211],[-73.8556,41.4203],[-73.8589,41.4142],[-73.8635,41.4092],[-73.8678,41.4093],[-73.8672,41.3982],[-73.8692,41.3937],[-73.8709,41.3942],[-73.8701,41.3954],[-73.8764,41.3964],[-73.8773,41.3937],[-73.8813,41.3942],[-73.8826,41.3911],[-73.8851,41.3916],[-73.8864,41.3888],[-73.8855,41.3894],[-73.884,41.3833],[-73.8819,41.3836],[-73.8821,41.382],[-73.8842,41.3806],[-73.8844,41.3782],[-73.8904,41.38],[-73.8934,41.3312],[-73.8914,41.3292],[-73.8877,41.3293],[-73.8878,41.3317],[-73.8834,41.3322],[-73.8814,41.3242],[-73.8748,41.3256],[-73.8717,41.3243],[-73.8665,41.3258],[-73.8687,41.3281],[-73.8692,41.3316],[-73.8614,41.3313],[-73.8619,41.3344],[-73.83,41.3377],[-73.8296,41.34],[-73.8274,41.3412],[-73.8233,41.3413],[-73.8258,41.344],[-73.8259,41.3526],[-73.8297,41.3552],[-73.8276,41.3625],[-73.8231,41.3679],[-73.8238,41.3718],[-73.8189,41.3722],[-73.8182,41.3773],[-73.8158,41.3792],[-73.813,41.3788],[-73.8117,41.3814],[-73.81,41.3818],[-73.8095,41.3804],[-73.8049,41.3884],[-73.793,41.3971],[-73.7897,41.3964],[-73.7804,41.4087],[-73.7774,41.4082],[-73.7736,41.4126]]]},"properties":{"name":"Putnam Valley Central School District"}},{"type":"Feature","geometry":{"type":"Polygon","coordinates":[[[-73.531,41.5172],[-73.548,41.517],[-73.5478,41.5129],[-73.5664,41.5122],[-73.566,41.5089],[-73.568,41.5071],[-73.563,41.5066],[-73.5631,41.5019],[-73.5659,41.502],[-73.5694,41.497],[-73.5687,41.4938],[-73.5709,41.4857],[-73.5744,41.4847],[-73.5747,41.4811],[-73.579,41.4791],[-73.5831,41.4828],[-73.5811,41.4869],[-73.5823,41.4903],[-73.6025,41.4888],[-73.6009,41.4822],[-73.5942,41.4827],[-73.5919,41.4761],[-73.5938,41.4747],[-73.5921,41.4726],[-73.596,41.4723],[-73.5972,41.4748],[-73.6022,41.4725],[-73.6081,41.4732],[-73.609,41.4675],[-73.6112,41.4674],[-73.6129,41.4611],[-73.6106,41.4586],[-73.611,41.4523],[-73.6135,41.4487],[-73.6191,41.4471],[-73.6217,41.4489],[-73.6221,41.4427],[-73.6506,41.44],[-73.6535,41.4348],[-73.6531,41.4327],[-73.6511,41.4321],[-73.6605,41.4305],[-73.6599,41.4225],[-73.6641,41.4219],[-73.6641,41.4198],[-73.6586,41.421],[-73.6568,41.4166],[-73.6576,41.4148],[-73.6621,41.4141],[-73.665,41.4115],[-73.6644,41.41],[-73.6618,41.4104],[-73.66,41.4057],[-73.6583,41.4075],[-73.655,41.4046],[-73.6588,41.368],[-73.6584,41.3643],[-73.6526,41.3641],[-73.6485,41.3615],[-73.6525,41.358],[-73.6412,41.357],[-73.6285,41.3582],[-73.6233,41.3705],[-73.6101,41.3694],[-73.6101,41.3781],[-73.5993,41.3804],[-73.5995,41.3864],[-73.5941,41.3883],[-73.5945,41.3805],[-73.5903,41.3809],[-73.591,41.3771],[-73.5864,41.3775],[-73.5841,41.3719],[-73.5781,41.373],[-73.5787,41.3762],[-73.5737,41.376],[-73.5734,41.3809],[-73.5716,41.3808],[-73.5715,41.3831],[-73.566,41.3828],[-73.5662,41.3806],[-73.5607,41.3803],[-73.5609,41.3768],[-73.5562,41.3772],[-73.553,41.375],[-73.5437,41.3743],[-73.531,41.5172]]]},"properties":{"name":"Brewster Central School District"}},{"type":"Feature","geometry":{"type":"MultiPolygon","coordinates":[[[[-73.944,41.4022],[-73.9448,41.4019],[-73.9439,41.4014],[-73.944,41.4022]]],[[[-73.9453,41.4026],[-73.9479,41.4016],[-73.9464,41.4017],[-73.9439,41.3968],[-73.9453,41.4026]]],[[[-73.9037,41.4254],[-73.8977,41.4338],[-73.903,41.4326],[-73.9082,41.4222],[-73.9174,41.4217],[-73.9179,41.4176],[-73.922,41.4174],[-73.9256,41.4128],[-73.9353,41.4111],[-73.9379,41.4149],[-73.9404,41.4007],[-73.94,41.3993],[-73.9384,41.4003],[-73.9397,41.3987],[-73.938,41.3965],[-73.9411,41.3917],[-73.9392,41.3894],[-73.9433,41.3917],[-73.9426,41.3957],[-73.9441,41.3965],[-73.9437,41.3922],[-73.9471,41.3877],[-73.9487,41.3772],[-73.9525,41.3747],[-73.9567,41.3628],[-73.9567,41.3527],[-73.9588,41.3441],[-73.9614,41.3402],[-73.9678,41.3373],[-73.9692,41.3339],[-73.9774,41.3269],[-73.9797,41.3221],[-73.9183,41.3285],[-73.9187,41.3412],[-73.9055,41.3674],[-73.8914,41.3649],[-73.8904,41.38],[-73.8844,41.3782],[-73.8842,41.3806],[-73.8821,41.382],[-73.8819,41.3836],[-73.884,41.3833],[-73.8855,41.3894],[-73.8864,41.3888],[-73.8851,41.3916],[-73.8826,41.3911],[-73.8813,41.3942],[-73.8773,41.3937],[-73.8764,41.3964],[-73.8701,41.3954],[-73.8709,41.3942],[-73.8692,41.3937],[-73.8672,41.3982],[-73.8681,41.4056],[-73.8664,41.4116],[-73.869,41.4147],[-73.8721,41.413],[-73.8782,41.4138],[-73.881,41.4084],[-73.8883,41.4098],[-73.8869,41.4319],[-73.8965,41.4268],[-73.8974,41.424],[-73.9044,41.4235],[-73.9037,41.4254]]]]},"properties":{"name":"Garrison Union Free School District"}},{"type":"Feature","geometry":{"type":"Polygon","coordinates":[[[-73.5632,41.5119],[-73.5608,41.5266],[-73.5798,41.5265],[-73.6246,41.5215],[-73.6384,41.5196],[-73.6345,41.5198],[-73.6391,41.5159],[-73.6454,41.5166],[-73.6457,41.5186],[-73.6815,41.5136],[-73.682,41.515],[-73.6786,41.5151],[-73.6801,41.517],[-73.6794,41.5186],[-73.6808,41.5191],[-73.68,41.5226],[-73.6958,41.5411],[-73.6973,41.5402],[-73.6964,41.5419],[-73.7053,41.5525],[-73.7103,41.5508],[-73.7099,41.5487],[-73.7177,41.5412],[-73.7152,41.538],[-73.7165,41.5314],[-73.7216,41.5314],[-73.7204,41.5374],[-73.728,41.5381],[-73.7275,41.5407],[-73.7374,41.5387],[-73.7399,41.5419],[-73.7457,41.543],[-73.7471,41.5462],[-73.7501,41.5449],[-73.7493,41.5438],[-73.7509,41.5421],[-73.757,41.5418],[-73.7576,41.5403],[-73.7556,41.5383],[-73.7604,41.5347],[-73.7618,41.5307],[-73.7702,41.5277],[-73.7744,41.5208],[-73.7716,41.5174],[-73.7732,41.514],[-73.7697,41.5099],[-73.771,41.5083],[-73.7683,41.5064],[-73.7707,41.5044],[-73.7956,41.5023],[-73.7931,41.5068],[-73.7951,41.5078],[-73.7986,41.5084],[-73.802,41.5049],[-73.8106,41.5076],[-73.8144,41.5006],[-73.8132,41.5007],[-73.8167,41.4978],[-73.8201,41.4915],[-73.8195,41.4886],[-73.837,41.4633],[-73.8384,41.4783],[-73.8385,41.4524],[-73.8326,41.4557],[-73.8303,41.4616],[-73.8237,41.4671],[-73.8156,41.4693],[-73.8086,41.4751],[-73.8059,41.4754],[-73.8111,41.4651],[-73.8078,41.464],[-73.8094,41.4627],[-73.8037,41.4619],[-73.8067,41.4577],[-73.8036,41.4562],[-73.8051,41.4531],[-73.799,41.4585],[-73.7953,41.4584],[-73.7894,41.4614],[-73.7919,41.4285],[-73.7843,41.4288],[-73.7825,41.4221],[-73.7864,41.4191],[-73.7819,41.4167],[-73.7806,41.4176],[-73.78,41.415],[-73.7736,41.4126],[-73.7704,41.4129],[-73.767,41.4197],[-73.7589,41.4236],[-73.7581,41.4261],[-73.755,41.4277],[-73.7572,41.419],[-73.7507,41.4212],[-73.7471,41.4245],[-73.7271,41.4307],[-73.7257,41.4266],[-73.7208,41.4267],[-73.72,41.431],[-73.7134,41.4324],[-73.7052,41.4252],[-73.7012,41.4179],[-73.7083,41.407],[-73.7068,41.4027],[-73.7041,41.4029],[-73.7043,41.3984],[-73.6928,41.3874],[-73.6762,41.3885],[-73.6715,41.3852],[-73.6716,41.3827],[-73.6672,41.3815],[-73.666,41.3798],[-73.6658,41.3741],[-73.6625,41.3736],[-73.6617,41.371],[-73.6641,41.3649],[-73.6584,41.3643],[-73.655,41.4046],[-73.6583,41.4075],[-73.66,41.4057],[-73.6618,41.4104],[-73.6644,41.41],[-73.665,41.4115],[-73.6621,41.4141],[-73.6576,41.4148],[-73.6568,41.4166],[-73.6586,41.421],[-73.6641,41.4198],[-73.6641,41.4219],[-73.6599,41.4225],[-73.6613,41.4294],[-73.6511,41.4321],[-73.6531,41.4327],[-73.6535,41.4348],[-73.6506,41.44],[-73.6221,41.4427],[-73.6217,41.4489],[-73.6191,41.4471],[-73.6135,41.4487],[-73.611,41.4523],[-73.6106,41.4586],[-73.6129,41.4611],[-73.6112,41.4674],[-73.609,41.4675],[-73.6081,41.4732],[-73.6022,41.4725],[-73.5972,41.4748],[-73.596,41.4723],[-73.5921,41.4726],[-73.5938,41.4747],[-73.5919,41.4761],[-73.5942,41.4827],[-73.6009,41.4822],[-73.6025,41.4888],[-73.5823,41.4903],[-73.5811,41.4869],[-73.5829,41.4852],[-73.5824,41.4813],[-73.579,41.4791],[-73.5747,41.4811],[-73.5744,41.4847],[-73.5707,41.4862],[-73.5687,41.4938],[-73.5694,41.497],[-73.5659,41.502],[-73.5631,41.5019],[-73.563,41.5066],[-73.568,41.5071],[-73.566,41.5089],[-73.5664,41.5122],[-73.5632,41.5119]]]},"properties":{"name":"Carmel Central School District"}},{"type":"Feature","geometry":{"type":"Polygon","coordinates":[[[-73.9677,41.8197],[-73.9685,41.8241],[-73.9727,41.8236],[-73.9719,41.8255],[-73.9736,41.8254],[-73.9736,41.8235],[-73.9758,41.8232],[-73.9743,41.8266],[-73.9772,41.8279],[-73.9752,41.8294],[-73.9777,41.8291],[-73.9815,41.8377],[-73.9858,41.8419],[-73.9882,41.8416],[-73.9891,41.8448],[-73.9966,41.8445],[-73.9958,41.842],[-74.0034,41.8412],[-74.0029,41.8386],[-74.008,41.8378],[-74.0075,41.8352],[-74.0177,41.8341],[-74.0165,41.829],[-74.0214,41.8283],[-74.0206,41.8245],[-74.0224,41.8244],[-74.0228,41.8262],[-74.0257,41.8257],[-74.0262,41.8278],[-74.0298,41.8275],[-74.0279,41.8256],[-74.0287,41.821],[-74.0275,41.8233],[-74.0254,41.823],[-74.0268,41.8177],[-74.0233,41.8108],[-74.0368,41.8111],[-74.0394,41.8039],[-74.0436,41.8045],[-74.042,41.7996],[-74.0515,41.803],[-74.0516,41.7983],[-74.053,41.7967],[-74.0685,41.8012],[-74.0672,41.8032],[-74.068,41.8081],[-74.0725,41.8151],[-74.0726,41.8175],[-74.0851,41.8199],[-74.0842,41.818],[-74.0905,41.8187],[-74.0909,41.8174],[-74.0861,41.8168],[-74.0885,41.8134],[-74.0961,41.8145],[-74.1058,41.8053],[-74.1097,41.7986],[-74.1163,41.7981],[-74.1567,41.7606],[-74.1575,41.7815],[-74.161,41.7748],[-74.17,41.764],[-74.1722,41.765],[-74.1776,41.7594],[-74.1815,41.7608],[-74.1828,41.7576],[-74.188,41.7567],[-74.1864,41.7544],[-74.1886,41.7527],[-74.1907,41.7526],[-74.1938,41.7583],[-74.1986,41.7553],[-74.1966,41.7517],[-74.2008,41.7521],[-74.2064,41.7469],[-74.2109,41.7459],[-74.2138,41.7526],[-74.2158,41.7513],[-74.2218,41.7638],[-74.2389,41.7497],[-74.2449,41.7625],[-74.2492,41.7589],[-74.248,41.7565],[-74.2496,41.7551],[-74.2612,41.7518],[-74.2605,41.7504],[-74.264,41.75],[-74.2695,41.7459],[-74.2652,41.7366],[-74.2699,41.735],[-74.2708,41.7367],[-74.2739,41.736],[-74.2702,41.7285],[-74.2722,41.728],[-74.2597,41.7027],[-74.2389,41.716],[-74.2466,41.7063],[-74.25,41.6963],[-74.2501,41.6948],[-74.2483,41.6942],[-74.2371,41.7017],[-74.2281,41.705],[-74.2191,41.7128],[-74.2204,41.7139],[-74.2033,41.7275],[-74.1878,41.716],[-74.1917,41.7139],[-74.1815,41.7056],[-74.1817,41.696],[-74.1844,41.6935],[-74.1831,41.6927],[-74.18,41.6957],[-74.1771,41.6944],[-74.1812,41.6849],[-74.1878,41.6866],[-74.1945,41.6923],[-74.1973,41.6921],[-74.1989,41.6955],[-74.2067,41.6952],[-74.208,41.6925],[-74.2056,41.6924],[-74.205,41.6891],[-74.2114,41.6804],[-74.2098,41.6797],[-74.2105,41.6778],[-74.2078,41.677],[-74.2108,41.6711],[-74.216,41.6704],[-74.2164,41.6688],[-74.2093,41.6672],[-74.211,41.6631],[-74.2088,41.6625],[-74.209,41.6612],[-74.2048,41.6604],[-74.2029,41.6654],[-74.1873,41.6609],[-74.1801,41.6609],[-74.1829,41.6525],[-74.1739,41.6502],[-74.1721,41.6611],[-74.1665,41.6639],[-74.1611,41.6622],[-74.1634,41.6558],[-74.1538,41.6522],[-74.152,41.6572],[-74.1473,41.6551],[-74.1457,41.6577],[-74.1397,41.6566],[-74.1393,41.6507],[-74.1378,41.6503],[-74.127,41.6731],[-74.1229,41.6719],[-74.1131,41.6914],[-74.1023,41.6869],[-74.1026,41.6847],[-74.1008,41.6834],[-74.1027,41.6823],[-74.1023,41.6799],[-74.1002,41.6808],[-74.1007,41.6776],[-74.0987,41.6784],[-74.1004,41.6766],[-74.0981,41.6742],[-74.0952,41.6744],[-74.0896,41.6785],[-74.0794,41.6894],[-74.0727,41.6878],[-74.0718,41.6888],[-74.0743,41.6899],[-74.0714,41.6973],[-74.0744,41.6982],[-74.0761,41.6969],[-74.079,41.6986],[-74.073,41.7077],[-74.0705,41.7147],[-74.0657,41.7131],[-74.064,41.7156],[-74.0611,41.7144],[-74.0575,41.7189],[-74.0596,41.7199],[-74.0583,41.7224],[-74.0566,41.7236],[-74.054,41.7225],[-74.0493,41.7306],[-74.0438,41.7359],[-74.0403,41.7426],[-74.0438,41.7424],[-74.046,41.744],[-74.0436,41.7532],[-74.0426,41.7542],[-74.0337,41.7501],[-74.0315,41.7555],[-74.0276,41.7549],[-74.0259,41.7586],[-74.0297,41.7602],[-74.0272,41.7655],[-74.0151,41.7638],[-74.0158,41.765],[-74.0132,41.766],[-74.0124,41.769],[-74.0146,41.7695],[-74.014,41.7721],[-74.0154,41.7726],[-74.0151,41.7759],[-74.0165,41.7764],[-74.0148,41.7786],[-74.0117,41.778],[-74.0113,41.7765],[-74.0082,41.7874],[-74.0107,41.7911],[-74.003,41.7884],[-74.0047,41.7968],[-73.9988,41.7949],[-73.9947,41.7973],[-73.9903,41.796],[-73.9876,41.8021],[-73.9766,41.7996],[-73.9755,41.8037],[-73.9853,41.8061],[-73.9834,41.8088],[-73.986,41.8144],[-73.9846,41.8156],[-73.9703,41.8141],[-73.9705,41.8159],[-73.9675,41.8177],[-73.9677,41.8197]]]},"properties":{"name":"New Paltz Central School District"}},{"type":"Feature","geometry":{"type":"MultiPolygon","coordinates":[[[[-74.2866,42.1154],[-74.2956,42.1183],[-74.2968,42.1169],[-74.2876,42.1138],[-74.2866,42.1154]]],[[[-74.3951,42.1934],[-74.4054,42.1801],[-74.4188,42.1858],[-74.422,42.1808],[-74.4182,42.1794],[-74.4219,42.1744],[-74.4144,42.1715],[-74.4161,42.1687],[-74.4243,42.1717],[-74.4275,42.1666],[-74.4346,42.1695],[-74.4357,42.1678],[-74.4409,42.1697],[-74.4391,42.1723],[-74.4462,42.1747],[-74.4503,42.1687],[-74.4517,42.1692],[-74.504,42.1449],[-74.5091,42.1452],[-74.5111,42.1422],[-74.5172,42.1414],[-74.5257,42.1326],[-74.5275,42.1331],[-74.5314,42.1275],[-74.4808,42.1056],[-74.4855,42.0995],[-74.4823,42.0981],[-74.4885,42.09],[-74.5033,42.0815],[-74.5081,42.0768],[-74.5029,42.0651],[-74.5059,42.0595],[-74.5032,42.0558],[-74.4956,42.0526],[-74.5078,42.0408],[-74.3378,41.9511],[-74.3554,41.9131],[-74.2588,41.8612],[-74.253,41.8668],[-74.2523,41.8637],[-74.2463,41.8583],[-74.2429,41.8601],[-74.241,41.8592],[-74.2356,41.8646],[-74.238,41.8656],[-74.2341,41.8713],[-74.2342,41.8736],[-74.227,41.8764],[-74.2365,41.8826],[-74.2152,41.9039],[-74.2147,41.9078],[-74.2075,41.9186],[-74.2014,41.9183],[-74.1977,41.9238],[-74.1921,41.9255],[-74.1775,41.9559],[-74.1341,41.931],[-74.1335,41.9346],[-74.1298,41.9324],[-74.1281,41.9355],[-74.1266,41.9345],[-74.1209,41.9393],[-74.1179,41.9371],[-74.1135,41.9396],[-74.1185,41.9436],[-74.1165,41.9454],[-74.093,41.9265],[-74.0935,41.9252],[-74.0879,41.9291],[-74.0826,41.9255],[-74.0874,41.9295],[-74.0864,41.9314],[-74.1008,41.9443],[-74.0975,41.9465],[-74.0954,41.9442],[-74.0928,41.9448],[-74.0943,41.9464],[-74.0925,41.9479],[-74.086,41.9411],[-74.0823,41.9412],[-74.086,41.9471],[-74.0868,41.9519],[-74.0968,41.965],[-74.0924,41.9609],[-74.0947,41.966],[-74.0841,41.953],[-74.0745,41.9601],[-74.086,41.9753],[-74.0894,41.9925],[-74.0893,41.9946],[-74.0835,41.9937],[-74.0816,41.9987],[-74.0919,42.0011],[-74.0925,41.9999],[-74.0944,42.0164],[-74.1012,42.0203],[-74.0936,42.0291],[-74.0969,42.0305],[-74.0867,42.0358],[-74.0834,42.0393],[-74.1071,42.0566],[-74.0754,42.0966],[-74.3076,42.1144],[-74.3245,42.1208],[-74.2993,42.1568],[-74.3152,42.1631],[-74.3113,42.1684],[-74.3191,42.1713],[-74.3221,42.1675],[-74.3473,42.1776],[-74.3519,42.1707],[-74.3865,42.1837],[-74.3828,42.1883],[-74.3951,42.1934]]],[[[-74.4228,42.1997],[-74.4321,42.2034],[-74.4426,42.1887],[-74.4328,42.1849],[-74.4228,42.1997]]]]},"properties":{"name":"Onteora Central School District"}},{"type":"Feature","geometry":{"type":"Polygon","coordinates":[[[-74.4072,41.8589],[-74.4122,41.8618],[-74.4142,41.8599],[-74.433,41.8674],[-74.4405,41.8607],[-74.4385,41.8595],[-74.447,41.8522],[-74.447,41.85],[-74.4449,41.8488],[-74.4477,41.8478],[-74.4521,41.8427],[-74.456,41.8441],[-74.4571,41.843],[-74.4573,41.8389],[-74.451,41.837],[-74.4478,41.834],[-74.4542,41.8244],[-74.4638,41.8253],[-74.4831,41.8398],[-74.5435,41.7789],[-74.5283,41.7699],[-74.5427,41.7536],[-74.5451,41.756],[-74.5484,41.7536],[-74.5414,41.7491],[-74.5569,41.7348],[-74.5207,41.7139],[-74.5189,41.715],[-74.5186,41.7178],[-74.5156,41.719],[-74.5055,41.7146],[-74.4957,41.7166],[-74.4939,41.7145],[-74.4972,41.7106],[-74.4956,41.7097],[-74.4877,41.7111],[-74.4801,41.7104],[-74.4801,41.7092],[-74.4714,41.7102],[-74.4681,41.7076],[-74.4586,41.7075],[-74.4575,41.705],[-74.462,41.698],[-74.4584,41.6946],[-74.4611,41.692],[-74.4584,41.6872],[-74.4606,41.6864],[-74.4555,41.6773],[-74.4648,41.6825],[-74.4657,41.6756],[-74.4934,41.6841],[-74.4932,41.6903],[-74.4958,41.6906],[-74.5145,41.6671],[-74.5075,41.6654],[-74.5078,41.66],[-74.4994,41.6584],[-74.5006,41.6535],[-74.4858,41.6507],[-74.4845,41.6516],[-74.4913,41.6565],[-74.4896,41.6614],[-74.4715,41.6575],[-74.472,41.6552],[-74.4749,41.6558],[-74.4755,41.6536],[-74.4733,41.6531],[-74.4737,41.6504],[-74.4754,41.6511],[-74.4771,41.6494],[-74.4776,41.6446],[-74.4711,41.6436],[-74.4733,41.6302],[-74.4847,41.6318],[-74.4849,41.6298],[-74.4796,41.6301],[-74.4843,41.6248],[-74.4849,41.6213],[-74.4881,41.6227],[-74.4925,41.6213],[-74.4942,41.6235],[-74.5103,41.6256],[-74.5109,41.6217],[-74.5147,41.6221],[-74.5152,41.6181],[-74.5007,41.6149],[-74.5026,41.6091],[-74.4946,41.6087],[-74.4966,41.5918],[-74.4843,41.5911],[-74.4871,41.5865],[-74.4814,41.5864],[-74.4782,41.5835],[-74.4772,41.5845],[-74.4616,41.5829],[-74.4646,41.5786],[-74.4495,41.5778],[-74.4437,41.5842],[-74.445,41.5856],[-74.4318,41.5966],[-74.4269,41.6088],[-74.4284,41.6091],[-74.4248,41.6145],[-74.4234,41.6144],[-74.4223,41.6197],[-74.4178,41.6196],[-74.4185,41.6304],[-74.4303,41.6311],[-74.4246,41.6397],[-74.4182,41.64],[-74.424,41.6404],[-74.4229,41.6421],[-74.4293,41.6429],[-74.4262,41.6435],[-74.4256,41.6466],[-74.4212,41.6465],[-74.4212,41.6529],[-74.4076,41.6514],[-74.3951,41.6449],[-74.3571,41.6694],[-74.3535,41.6686],[-74.3469,41.6705],[-74.3429,41.6783],[-74.3321,41.6848],[-74.3199,41.6862],[-74.3174,41.6901],[-74.3157,41.6893],[-74.3077,41.6916],[-74.3038,41.6946],[-74.2885,41.7004],[-74.2838,41.699],[-74.2802,41.7016],[-74.2711,41.7001],[-74.2597,41.7027],[-74.2761,41.7363],[-74.2877,41.7332],[-74.2905,41.7336],[-74.2919,41.7367],[-74.291,41.7318],[-74.2975,41.7269],[-74.3001,41.7281],[-74.2993,41.7307],[-74.302,41.7364],[-74.304,41.7347],[-74.3029,41.7284],[-74.3042,41.7274],[-74.3115,41.7413],[-74.3358,41.7228],[-74.3368,41.7206],[-74.3439,41.7507],[-74.3516,41.758],[-74.352,41.7606],[-74.3486,41.762],[-74.3563,41.7722],[-74.3527,41.7759],[-74.3536,41.7798],[-74.3474,41.7783],[-74.3484,41.7835],[-74.345,41.7889],[-74.3428,41.7882],[-74.3408,41.7897],[-74.3373,41.7875],[-74.3343,41.7903],[-74.337,41.7915],[-74.334,41.7932],[-74.3377,41.7957],[-74.3419,41.7908],[-74.3444,41.7974],[-74.3788,41.8316],[-74.3779,41.8325],[-74.3752,41.8303],[-74.3724,41.8329],[-74.3771,41.8371],[-74.3746,41.8394],[-74.3723,41.8374],[-74.3697,41.8396],[-74.3662,41.8362],[-74.3629,41.8393],[-74.377,41.8466],[-74.3755,41.8424],[-74.3824,41.846],[-74.3862,41.8394],[-74.3815,41.8362],[-74.382,41.8286],[-74.3785,41.826],[-74.3778,41.8225],[-74.414,41.8418],[-74.4134,41.8455],[-74.4058,41.8427],[-74.4018,41.8461],[-74.4079,41.8493],[-74.4105,41.8469],[-74.4144,41.8496],[-74.4158,41.8484],[-74.4136,41.8458],[-74.4184,41.8475],[-74.4173,41.8436],[-74.4281,41.8495],[-74.4233,41.854],[-74.4192,41.8518],[-74.4154,41.8557],[-74.4145,41.8539],[-74.4072,41.8589]]]},"properties":{"name":"Ellenville Central School District"}},{"type":"Feature","geometry":{"type":"Polygon","coordinates":[[[-73.9513,41.6705],[-73.9788,41.6829],[-73.9781,41.68],[-73.9849,41.6828],[-73.9865,41.6803],[-73.9909,41.6821],[-73.9928,41.677],[-73.9901,41.677],[-73.9901,41.6757],[-73.9926,41.6758],[-73.9922,41.6724],[-74.0046,41.6732],[-74.0035,41.6792],[-74.0048,41.6793],[-74.0047,41.6809],[-74.0172,41.6822],[-74.0152,41.6878],[-74.0187,41.6857],[-74.0195,41.6833],[-74.0261,41.6839],[-74.0293,41.6827],[-74.03,41.6809],[-74.0499,41.683],[-74.0515,41.6781],[-74.0498,41.6749],[-74.0574,41.6677],[-74.0596,41.6639],[-74.0597,41.6584],[-74.0567,41.6585],[-74.0561,41.6551],[-74.0511,41.6547],[-74.0519,41.6534],[-74.0497,41.653],[-74.0473,41.6541],[-74.0481,41.6528],[-74.0465,41.6526],[-74.0418,41.6568],[-74.0436,41.6518],[-74.0281,41.6502],[-74.0272,41.6541],[-74.0222,41.6535],[-74.0371,41.5821],[-74.0413,41.5817],[-74.0425,41.5753],[-74.0399,41.5744],[-74.04,41.5725],[-74.0381,41.5712],[-74.0342,41.5708],[-74.0344,41.5656],[-74.0283,41.5647],[-74.0278,41.5576],[-74.0127,41.5549],[-74.0133,41.5532],[-74.0051,41.5519],[-74.0054,41.5507],[-73.9993,41.5485],[-73.9965,41.5532],[-73.9945,41.5538],[-73.9967,41.5517],[-73.993,41.551],[-73.9632,41.5738],[-73.9653,41.5751],[-73.9598,41.584],[-73.9588,41.59],[-73.9613,41.6026],[-73.9644,41.6029],[-73.9646,41.6015],[-73.9648,41.6031],[-73.9674,41.6035],[-73.9615,41.603],[-73.9591,41.6132],[-73.9557,41.6189],[-73.9568,41.6272],[-73.9544,41.6301],[-73.954,41.6492],[-73.9518,41.6567],[-73.9513,41.6705]]]},"properties":{"name":"Marlboro Central School District"}},{"type":"Feature","geometry":{"type":"Polygon","coordinates":[[[-74.1341,41.931],[-74.1775,41.9559],[-74.1921,41.9255],[-74.1977,41.9238],[-74.2014,41.9183],[-74.2075,41.9186],[-74.2147,41.9078],[-74.2152,41.9039],[-74.2365,41.8826],[-74.227,41.8764],[-74.2342,41.8736],[-74.2341,41.8713],[-74.238,41.8656],[-74.2356,41.8646],[-74.241,41.8592],[-74.2429,41.8601],[-74.2463,41.8583],[-74.2523,41.8637],[-74.253,41.8668],[-74.2588,41.8612],[-74.3554,41.9131],[-74.4093,41.8644],[-74.4073,41.8632],[-74.4028,41.8646],[-74.399,41.861],[-74.4033,41.8591],[-74.4042,41.8603],[-74.4062,41.8595],[-74.4145,41.8539],[-74.4154,41.8557],[-74.4192,41.8518],[-74.4233,41.854],[-74.4281,41.8495],[-74.4173,41.8436],[-74.4184,41.8475],[-74.4136,41.8458],[-74.4158,41.8484],[-74.4144,41.8496],[-74.4105,41.8469],[-74.4079,41.8493],[-74.4018,41.8461],[-74.4058,41.8427],[-74.4134,41.8455],[-74.414,41.8418],[-74.3778,41.8225],[-74.3785,41.826],[-74.382,41.8286],[-74.3815,41.8362],[-74.3862,41.8394],[-74.3824,41.846],[-74.3755,41.8424],[-74.377,41.8466],[-74.3629,41.8393],[-74.3662,41.8362],[-74.3697,41.8396],[-74.3723,41.8374],[-74.3746,41.8394],[-74.3771,41.8371],[-74.3724,41.8329],[-74.3752,41.8303],[-74.3779,41.8325],[-74.3788,41.8316],[-74.3444,41.7974],[-74.3419,41.7908],[-74.3377,41.7957],[-74.334,41.7932],[-74.337,41.7915],[-74.3343,41.7903],[-74.3373,41.7875],[-74.3408,41.7897],[-74.3428,41.7882],[-74.345,41.7889],[-74.3484,41.7835],[-74.3474,41.7783],[-74.3536,41.7798],[-74.3527,41.7759],[-74.3563,41.7722],[-74.3486,41.762],[-74.352,41.7606],[-74.3516,41.758],[-74.3439,41.7507],[-74.3368,41.7206],[-74.3358,41.7228],[-74.3115,41.7413],[-74.3042,41.7274],[-74.3029,41.7284],[-74.304,41.7347],[-74.302,41.7364],[-74.2993,41.7307],[-74.3001,41.7281],[-74.2975,41.7269],[-74.291,41.7318],[-74.2919,41.7367],[-74.2905,41.7336],[-74.2877,41.7332],[-74.2761,41.7363],[-74.2722,41.728],[-74.2702,41.7285],[-74.2739,41.736],[-74.2708,41.7367],[-74.2699,41.735],[-74.2652,41.7366],[-74.2695,41.7459],[-74.264,41.75],[-74.2605,41.7504],[-74.2612,41.7518],[-74.2496,41.7551],[-74.248,41.7565],[-74.2492,41.7589],[-74.2449,41.7625],[-74.2389,41.7497],[-74.2218,41.7638],[-74.2158,41.7513],[-74.2138,41.7526],[-74.2109,41.7459],[-74.2064,41.7469],[-74.2008,41.7521],[-74.1966,41.7517],[-74.1986,41.7553],[-74.1938,41.7583],[-74.1907,41.7526],[-74.1886,41.7527],[-74.1864,41.7544],[-74.188,41.7567],[-74.1828,41.7576],[-74.1815,41.7608],[-74.1776,41.7594],[-74.1722,41.765],[-74.17,41.764],[-74.161,41.7748],[-74.1575,41.7815],[-74.1567,41.7606],[-74.1163,41.7981],[-74.1097,41.7986],[-74.1015,41.8094],[-74.1041,41.8113],[-74.0987,41.8161],[-74.0975,41.8155],[-74.0968,41.82],[-74.0999,41.8203],[-74.0999,41.8238],[-74.0936,41.8239],[-74.0935,41.8265],[-74.088,41.8295],[-74.0884,41.8277],[-74.0837,41.8253],[-74.0823,41.8274],[-74.083,41.8319],[-74.0815,41.8327],[-74.0846,41.8357],[-74.0792,41.836],[-74.0771,41.8387],[-74.0751,41.8368],[-74.072,41.8369],[-74.0733,41.8378],[-74.0705,41.8393],[-74.0713,41.8406],[-74.0683,41.8412],[-74.0703,41.8467],[-74.062,41.8473],[-74.0621,41.8493],[-74.0684,41.8542],[-74.067,41.8563],[-74.0694,41.8575],[-74.0686,41.8592],[-74.0733,41.8606],[-74.0693,41.8645],[-74.0786,41.8664],[-74.0797,41.8679],[-74.0786,41.8702],[-74.0834,41.8703],[-74.0822,41.8725],[-74.0852,41.8725],[-74.0865,41.8701],[-74.0898,41.8713],[-74.0892,41.8747],[-74.0859,41.8791],[-74.0885,41.8793],[-74.0918,41.8755],[-74.0755,41.8971],[-74.0841,41.9037],[-74.1341,41.931]]]},"properties":{"name":"Rondout Valley Central School District"}},{"type":"Feature","geometry":{"type":"Polygon","coordinates":[[[-73.9186,42.1291],[-74.0025,42.177],[-74.0036,42.1634],[-74.0249,42.1621],[-74.0424,42.1704],[-74.0748,42.0966],[-74.1071,42.0566],[-74.0866,42.0418],[-74.0838,42.0384],[-74.016,42.0205],[-73.9858,42.0219],[-73.9811,42.02],[-73.9839,42.0109],[-73.9806,42.0096],[-73.9809,42.0055],[-73.9756,42.0054],[-73.9738,42.0091],[-73.9699,42.0083],[-73.9782,41.9902],[-73.9695,41.9887],[-73.9669,41.9898],[-73.9619,41.988],[-73.96,41.9906],[-73.9649,41.993],[-73.9574,41.9913],[-73.9554,41.9934],[-73.9544,41.988],[-73.9514,41.9873],[-73.9477,41.9941],[-73.9486,41.995],[-73.9465,41.9969],[-73.9439,42.0071],[-73.9396,42.0143],[-73.9442,42.0343],[-73.94,42.0478],[-73.9405,42.0646],[-73.9342,42.0663],[-73.9338,42.0685],[-73.9305,42.0695],[-73.9373,42.0699],[-73.9293,42.072],[-73.9358,42.0727],[-73.9354,42.075],[-73.939,42.0728],[-73.94,42.0748],[-73.9344,42.0896],[-73.9319,42.0928],[-73.9309,42.1042],[-73.9285,42.1075],[-73.9301,42.1099],[-73.9285,42.112],[-73.9262,42.1114],[-73.9226,42.1208],[-73.9192,42.1246],[-73.919,42.1274],[-73.9168,42.1284],[-73.9186,42.1291]]]},"properties":{"name":"Saugerties Central School District"}},{"type":"Feature","geometry":{"type":"Polygon","coordinates":[[[-74.0727,41.6878],[-74.0794,41.6894],[-74.0896,41.6785],[-74.0952,41.6744],[-74.0981,41.6742],[-74.1004,41.6766],[-74.0987,41.6784],[-74.1007,41.6776],[-74.1002,41.6808],[-74.1023,41.6799],[-74.1027,41.6823],[-74.1008,41.6834],[-74.1026,41.6847],[-74.1023,41.6869],[-74.1131,41.6914],[-74.1229,41.6719],[-74.127,41.6731],[-74.1378,41.6503],[-74.1393,41.6507],[-74.1397,41.6566],[-74.1457,41.6577],[-74.1473,41.6551],[-74.152,41.6572],[-74.1538,41.6522],[-74.1634,41.6558],[-74.1611,41.6622],[-74.1665,41.6639],[-74.1721,41.6611],[-74.1739,41.6502],[-74.1829,41.6525],[-74.1801,41.6609],[-74.1873,41.6609],[-74.2029,41.6654],[-74.2048,41.6604],[-74.209,41.6612],[-74.2088,41.6625],[-74.211,41.6631],[-74.2093,41.6672],[-74.2165,41.6691],[-74.2159,41.6704],[-74.2108,41.6711],[-74.2078,41.677],[-74.2105,41.6778],[-74.2098,41.6797],[-74.2114,41.6804],[-74.205,41.6891],[-74.2056,41.6924],[-74.208,41.6925],[-74.2067,41.6952],[-74.1989,41.6955],[-74.1973,41.6921],[-74.1945,41.6923],[-74.1878,41.6866],[-74.1812,41.6849],[-74.1771,41.6944],[-74.18,41.6957],[-74.1831,41.6927],[-74.1844,41.6935],[-74.1817,41.696],[-74.1815,41.7056],[-74.1917,41.7139],[-74.1878,41.716],[-74.2033,41.7275],[-74.2204,41.7139],[-74.2191,41.7128],[-74.2281,41.705],[-74.2371,41.7017],[-74.2483,41.6942],[-74.2501,41.6948],[-74.25,41.6963],[-74.2466,41.7063],[-74.2389,41.716],[-74.2593,41.7027],[-74.2711,41.7001],[-74.2802,41.7016],[-74.2838,41.699],[-74.2885,41.7004],[-74.3036,41.6946],[-74.2965,41.6863],[-74.286,41.6796],[-74.2797,41.6814],[-74.2829,41.6859],[-74.2745,41.6883],[-74.2748,41.6827],[-74.2709,41.672],[-74.2589,41.6684],[-74.2636,41.6646],[-74.2602,41.6633],[-74.2627,41.6598],[-74.2582,41.6579],[-74.2623,41.6512],[-74.2566,41.649],[-74.2615,41.6447],[-74.2553,41.6409],[-74.2638,41.6351],[-74.2622,41.6339],[-74.2641,41.6327],[-74.2502,41.6293],[-74.2516,41.6054],[-74.2402,41.6027],[-74.2375,41.606],[-74.23,41.6048],[-74.2293,41.607],[-74.226,41.6066],[-74.2158,41.6044],[-74.2169,41.6008],[-74.212,41.5997],[-74.2109,41.6038],[-74.2083,41.6034],[-74.2091,41.5991],[-74.202,41.5976],[-74.2022,41.5943],[-74.1875,41.5908],[-74.1871,41.5832],[-74.1754,41.5805],[-74.1749,41.5823],[-74.1689,41.5812],[-74.1672,41.5836],[-74.1697,41.5865],[-74.1683,41.5893],[-74.1603,41.5878],[-74.1607,41.5894],[-74.1264,41.5826],[-74.1318,41.5562],[-74.1185,41.5529],[-74.1191,41.5511],[-74.1152,41.5501],[-74.1139,41.5478],[-74.1139,41.5497],[-74.1102,41.5488],[-74.1091,41.5512],[-74.1119,41.5528],[-74.1073,41.568],[-74.1079,41.5712],[-74.1061,41.5732],[-74.1048,41.5693],[-74.1024,41.5683],[-74.1027,41.5726],[-74.101,41.5744],[-74.1019,41.5762],[-74.0956,41.574],[-74.0963,41.5627],[-74.1007,41.5592],[-74.1002,41.555],[-74.0853,41.5511],[-74.084,41.5553],[-74.0758,41.5549],[-74.0746,41.5599],[-74.0768,41.5652],[-74.0748,41.5684],[-74.0755,41.5751],[-74.077,41.576],[-74.0747,41.5778],[-74.0704,41.5779],[-74.0684,41.5724],[-74.0669,41.5723],[-74.0656,41.5606],[-74.0543,41.5653],[-74.0619,41.5722],[-74.0553,41.5728],[-74.0553,41.577],[-74.0584,41.5771],[-74.0579,41.5791],[-74.0547,41.5788],[-74.0539,41.5807],[-74.0507,41.5809],[-74.0509,41.5794],[-74.0416,41.5803],[-74.0413,41.5817],[-74.0371,41.5821],[-74.0222,41.6535],[-74.0272,41.6541],[-74.0281,41.6502],[-74.0436,41.6518],[-74.0418,41.6568],[-74.0465,41.6526],[-74.0481,41.6528],[-74.0473,41.6541],[-74.0497,41.653],[-74.0519,41.6534],[-74.0511,41.6547],[-74.0561,41.6551],[-74.0567,41.6585],[-74.0597,41.6584],[-74.0596,41.6639],[-74.0498,41.6749],[-74.0514,41.677],[-74.051,41.6794],[-74.0566,41.6806],[-74.0559,41.6823],[-74.0577,41.683],[-74.0591,41.6797],[-74.0613,41.6797],[-74.0679,41.6845],[-74.0712,41.6852],[-74.0679,41.6847],[-74.0727,41.6878]]]},"properties":{"name":"Wallkill Central School District"}},{"type":"Feature","geometry":{"type":"MultiPolygon","coordinates":[[[[-73.9697,41.9205],[-73.9716,41.92],[-73.9677,41.9206],[-73.9697,41.9205]]],[[[-74.0834,42.0383],[-74.0969,42.0305],[-74.0936,42.0291],[-74.1012,42.0203],[-74.0944,42.0164],[-74.0925,41.9999],[-74.0919,42.0011],[-74.0816,41.9987],[-74.0835,41.9937],[-74.0893,41.9946],[-74.0894,41.9925],[-74.086,41.9753],[-74.0745,41.9601],[-74.0841,41.953],[-74.0947,41.966],[-74.0924,41.9609],[-74.0968,41.965],[-74.0868,41.9519],[-74.086,41.9471],[-74.0823,41.9412],[-74.086,41.9411],[-74.0925,41.9479],[-74.0943,41.9464],[-74.0928,41.9448],[-74.0954,41.9442],[-74.0975,41.9465],[-74.1008,41.9443],[-74.0864,41.9314],[-74.0874,41.9295],[-74.0826,41.9255],[-74.0879,41.9291],[-74.0935,41.9252],[-74.093,41.9265],[-74.1165,41.9454],[-74.1185,41.9436],[-74.1135,41.9396],[-74.1179,41.9371],[-74.1209,41.9393],[-74.1266,41.9345],[-74.1281,41.9355],[-74.1298,41.9324],[-74.1335,41.9346],[-74.1341,41.931],[-74.0841,41.9037],[-74.0755,41.8971],[-74.0918,41.8755],[-74.0885,41.8793],[-74.0859,41.8791],[-74.0892,41.8747],[-74.0898,41.8713],[-74.0865,41.8701],[-74.0852,41.8725],[-74.0822,41.8725],[-74.0834,41.8703],[-74.0786,41.8702],[-74.0797,41.8679],[-74.0786,41.8664],[-74.0693,41.8645],[-74.0733,41.8606],[-74.0686,41.8592],[-74.0694,41.8575],[-74.067,41.8563],[-74.0684,41.8542],[-74.0618,41.8485],[-74.0629,41.8469],[-74.0703,41.8467],[-74.0683,41.8412],[-74.0713,41.8406],[-74.0705,41.8393],[-74.0733,41.8378],[-74.072,41.8369],[-74.0751,41.8368],[-74.0771,41.8387],[-74.0792,41.836],[-74.0846,41.8357],[-74.0815,41.8327],[-74.083,41.8319],[-74.0823,41.8274],[-74.0837,41.8253],[-74.0884,41.8277],[-74.088,41.8295],[-74.0935,41.8265],[-74.0936,41.8239],[-74.0999,41.8238],[-74.0999,41.8203],[-74.0968,41.82],[-74.0964,41.8183],[-74.0975,41.8155],[-74.0987,41.8161],[-74.1041,41.8113],[-74.1015,41.8094],[-74.0961,41.8145],[-74.0885,41.8134],[-74.0861,41.8168],[-74.0909,41.8174],[-74.0905,41.8187],[-74.0842,41.818],[-74.0851,41.8199],[-74.0726,41.8175],[-74.0725,41.8151],[-74.068,41.8081],[-74.0672,41.8032],[-74.0685,41.8012],[-74.0654,41.8005],[-74.0658,41.7995],[-74.053,41.7967],[-74.0516,41.7983],[-74.0515,41.803],[-74.042,41.7996],[-74.0436,41.8045],[-74.0394,41.8039],[-74.0368,41.8111],[-74.0233,41.8108],[-74.0268,41.8177],[-74.0254,41.823],[-74.0275,41.8233],[-74.0287,41.821],[-74.0279,41.8256],[-74.0298,41.8275],[-74.0262,41.8278],[-74.0257,41.8257],[-74.0228,41.8262],[-74.0224,41.8244],[-74.0206,41.8245],[-74.0214,41.8283],[-74.0165,41.829],[-74.0177,41.8341],[-74.0075,41.8352],[-74.008,41.8378],[-74.0029,41.8386],[-74.0034,41.8412],[-73.9958,41.842],[-73.9966,41.8445],[-73.9941,41.8447],[-73.9891,41.8448],[-73.9882,41.8416],[-73.9838,41.8405],[-73.9798,41.8316],[-73.9777,41.8291],[-73.9752,41.8294],[-73.9772,41.8279],[-73.9743,41.8266],[-73.9758,41.8232],[-73.9719,41.8255],[-73.9727,41.8236],[-73.9685,41.8241],[-73.9677,41.8197],[-73.9642,41.8167],[-73.9624,41.8179],[-73.9536,41.8169],[-73.9561,41.8255],[-73.9584,41.8246],[-73.9559,41.8283],[-73.9527,41.8541],[-73.9488,41.8583],[-73.9469,41.864],[-73.9508,41.8679],[-73.9587,41.8866],[-73.9697,41.8995],[-73.9692,41.9069],[-73.9732,41.9108],[-73.9765,41.9172],[-73.9721,41.9198],[-73.9769,41.9191],[-73.977,41.9206],[-73.9629,41.9252],[-73.9632,41.927],[-73.9645,41.9242],[-73.9676,41.9236],[-73.9688,41.9251],[-73.967,41.9261],[-73.9652,41.925],[-73.9624,41.9285],[-73.9672,41.9312],[-73.9664,41.9344],[-73.9695,41.9373],[-73.9691,41.9412],[-73.9662,41.9422],[-73.9618,41.9523],[-73.9604,41.9574],[-73.9615,41.9592],[-73.9587,41.9639],[-73.9601,41.9655],[-73.9569,41.9661],[-73.9582,41.9682],[-73.9557,41.9714],[-73.9514,41.9873],[-73.9544,41.988],[-73.9554,41.9934],[-73.9574,41.9913],[-73.9649,41.993],[-73.96,41.9906],[-73.9619,41.988],[-73.9669,41.9898],[-73.9695,41.9887],[-73.9782,41.9902],[-73.9699,42.0083],[-73.9738,42.0091],[-73.9756,42.0054],[-73.9809,42.0055],[-73.9806,42.0096],[-73.9839,42.0109],[-73.9811,42.02],[-73.9858,42.0219],[-74.016,42.0205],[-74.0834,42.0383]]]]},"properties":{"name":"Kingston City School District"}},{"type":"Feature","geometry":{"type":"Polygon","coordinates":[[[-73.9536,41.8169],[-73.9624,41.8179],[-73.9642,41.8167],[-73.9677,41.8197],[-73.9675,41.8177],[-73.9705,41.8159],[-73.9703,41.8141],[-73.9846,41.8156],[-73.9862,41.8129],[-73.9834,41.8088],[-73.9853,41.8061],[-73.9755,41.8037],[-73.9766,41.7996],[-73.9876,41.8021],[-73.9903,41.796],[-73.9947,41.7973],[-73.9988,41.7949],[-74.0047,41.7968],[-74.003,41.7884],[-74.0107,41.7911],[-74.0082,41.7874],[-74.0113,41.7765],[-74.0117,41.778],[-74.0148,41.7786],[-74.0165,41.7764],[-74.0151,41.7759],[-74.0154,41.7726],[-74.014,41.7721],[-74.0146,41.7695],[-74.0124,41.769],[-74.0132,41.766],[-74.0151,41.7663],[-74.0151,41.7638],[-74.0272,41.7655],[-74.0297,41.7602],[-74.0259,41.7586],[-74.0276,41.7549],[-74.0315,41.7555],[-74.0337,41.7501],[-74.0426,41.7542],[-74.046,41.744],[-74.0438,41.7424],[-74.0403,41.7426],[-74.0438,41.7359],[-74.0493,41.7306],[-74.054,41.7225],[-74.0566,41.7236],[-74.0583,41.7224],[-74.0596,41.7199],[-74.0575,41.7189],[-74.0611,41.7144],[-74.064,41.7156],[-74.0657,41.7131],[-74.0705,41.7147],[-74.0715,41.7132],[-74.073,41.7077],[-74.079,41.6986],[-74.0761,41.6969],[-74.0744,41.6982],[-74.0714,41.6973],[-74.0743,41.6899],[-74.0679,41.6847],[-74.0712,41.6852],[-74.0679,41.6845],[-74.0613,41.6797],[-74.0591,41.6797],[-74.0577,41.683],[-74.0559,41.6823],[-74.0566,41.6806],[-74.051,41.6794],[-74.0499,41.683],[-74.03,41.6809],[-74.0293,41.6827],[-74.0261,41.6839],[-74.0195,41.6833],[-74.0187,41.6857],[-74.0152,41.6878],[-74.0172,41.6822],[-74.0047,41.6809],[-74.0048,41.6793],[-74.0035,41.6792],[-74.0046,41.6732],[-73.9922,41.6724],[-73.9926,41.6758],[-73.9901,41.6757],[-73.9901,41.677],[-73.9928,41.677],[-73.9909,41.6821],[-73.9865,41.6803],[-73.9849,41.6828],[-73.9781,41.68],[-73.9788,41.6829],[-73.9513,41.6705],[-73.9465,41.681],[-73.947,41.6881],[-73.9515,41.6983],[-73.9459,41.733],[-73.9445,41.7518],[-73.9458,41.7584],[-73.9543,41.7687],[-73.9575,41.7873],[-73.9535,41.8083],[-73.9536,41.8169]]]},"properties":{"name":"Highland Central School District"}}]}
